HIERARCHY
ROOT hip
{
	OFFSET 0.00 0.00 0.00
	CHANNELS 6 Xposition Yposition Zposition Xrotation Yrotation Zrotation
	JOINT abdomen
	{
		OFFSET 0.0000 3.3100 -0.0000
		CHANNELS 3 Xrotation Yrotation Zrotation
		JOINT chest
		{
			OFFSET 0.0000 8.0660 -0.6050
			CHANNELS 3 Xrotation Yrotation Zrotation
			JOINT neck
			{
				OFFSET 0.0000 9.8861 -0.3705
				CHANNELS 3 Xrotation Yrotation Zrotation
				JOINT head
				{
					OFFSET 0.0000 2.9776 -0.0000
					CHANNELS 3 Xrotation Yrotation Zrotation
					End Site
					{
						OFFSET 0.0000 3.1102 -0.0000
					}
				}
			}
			JOINT lCollar
			{
				OFFSET 2.8220 6.5116 -0.8157
				CHANNELS 3 Xrotation Yrotation Zrotation
				JOINT lShldr
				{
					OFFSET 3.1102 0.0000 0.0000
					CHANNELS 3 Xrotation Yrotation Zrotation
					JOINT lForeArm
					{
						OFFSET 10.9354 0.0000 0.0000
						CHANNELS 3 Xrotation Yrotation Zrotation
						JOINT lHand
						{
							OFFSET 9.5165 0.0000 0.0000
							CHANNELS 3 Xrotation Yrotation Zrotation
							End Site
							{
								OFFSET 3.9370 0.0000 0.0000
							}
						}
					}
				}
			}
			JOINT rCollar
			{
				OFFSET -2.8346 6.5116 -0.8157
				CHANNELS 3 Xrotation Yrotation Zrotation
				JOINT rShldr
				{
					OFFSET -3.1267 0.0000 0.0000
					CHANNELS 3 Xrotation Yrotation Zrotation
					JOINT rForeArm
					{
						OFFSET -10.9354 0.0000 0.0000
						CHANNELS 3 Xrotation Yrotation Zrotation
						JOINT rHand
						{
							OFFSET -9.5236 0.0000 0.0000
							CHANNELS 3 Xrotation Yrotation Zrotation
							End Site
							{
								OFFSET -3.9370 0.0000 0.0000
							}
						}
					}
				}
			}
		}
	}
	JOINT rThigh
	{
		OFFSET -5.0711 -1.6176 1.3236
		CHANNELS 3 Xrotation Yrotation Zrotation
		JOINT rShin
		{
			OFFSET 1.9148 -19.3276 -0.0307
			CHANNELS 3 Xrotation Yrotation Zrotation
			JOINT rFoot
			{
				OFFSET 0.0000 -18.4446 -1.1366
				CHANNELS 3 Xrotation Yrotation Zrotation
				End Site
				{
					OFFSET 0.0000 -2.3873 4.4077
				}
			}
		}
	}
	JOINT lThigh
	{
		OFFSET 4.9907 -1.6141 1.3290
		CHANNELS 3 Xrotation Yrotation Zrotation
		JOINT lShin
		{
			OFFSET -1.7940 -19.3328 -0.0349
			CHANNELS 3 Xrotation Yrotation Zrotation
			JOINT lFoot
			{
				OFFSET 0.0543 -18.4448 -1.1373
				CHANNELS 3 Xrotation Yrotation Zrotation
				End Site
				{
					OFFSET 0.0000 -2.3866 4.4077
				}
			}
		}
	}
}
MOTION
Frames: 26
Frame Time: 0.041667
0.0000 0.0000 0.0969 0.0000 0.0000 0.0000 0.0000 0.0000 0.0000 1.0000 0.0000 0.0000 1.0000 0.0000 0.0000 1.0000 0.0000 0.0000 0.0000 0.0000 0.0000 0.0000 0.0000 0.0000 0.0000 0.0000 0.0000 0.0000 0.0000 0.0000 0.0000 0.0000 0.0000 0.0000 0.0000 0.0000 0.0000 0.0000 0.0000 0.0000 0.0000 0.0000 1.0000 0.0000 0.0000 1.0000 0.0000 0.0000 1.0000 0.0000 0.0000 1.0000 0.0000 0.0000 1.0000 0.0000 0.0000 1.0000 0.0000 0.0000 
-0.0258 0.0023 -0.1216 2.1044 -0.0417 -0.4464 10.9289 -0.3942 -2.2926 0.0000 0.0000 0.0000 0.0000 0.0000 0.0000 0.0000 0.0000 0.0000 2.6441 6.7137 5.5207 17.2197 -7.2679 -62.3362 0.0000 -31.0823 0.0000 -2.0594 -14.2479 -13.3142 -15.4124 29.9119 15.3753 -38.2436 -24.3916 50.3920 0.8505 30.1356 -3.3987 -27.0253 -24.0858 -6.0181 0.0000 0.0000 0.0000 0.0000 0.0000 0.0000 0.0000 0.0000 0.0000 0.0000 0.0000 0.0000 0.0000 0.0000 0.0000 0.0000 0.0000 0.0000 
-0.0258 0.0023 -0.1216 2.1044 -0.0417 -0.4464 10.9289 -0.3942 -2.2926 0.0000 0.0000 0.0000 0.0000 0.0000 0.0000 0.0000 0.0000 0.0000 2.6441 6.7137 5.5207 17.2197 -7.2679 -62.3362 0.0000 -31.0823 0.0000 -2.0594 -14.2479 -13.3142 -15.8252 29.6985 15.3493 -40.4160 -23.7288 50.7902 0.8849 31.2819 -3.3888 -28.4695 -23.3767 -7.1878 0.0000 0.0000 0.0000 0.0000 0.0000 0.0000 0.0000 0.0000 0.0000 0.0000 0.0000 0.0000 0.0000 0.0000 0.0000 0.0000 0.0000 0.0000 
-0.0258 0.0023 -0.1216 2.1044 -0.0417 -0.4464 10.9289 -0.3942 -2.2926 0.0000 0.0000 0.0000 0.0000 0.0000 0.0000 0.0000 0.0000 0.0000 2.6441 6.7137 5.5207 17.2197 -7.2679 -62.3362 0.0000 -31.0823 0.0000 -2.0594 -14.2479 -13.3142 -16.2062 29.4855 15.1042 -44.0606 -22.5329 49.9119 0.9915 34.7918 -3.3626 -30.1206 -21.5526 -8.9947 0.0000 0.0000 0.0000 0.0000 0.0000 0.0000 0.0000 0.0000 0.0000 0.0000 0.0000 0.0000 0.0000 0.0000 0.0000 0.0000 0.0000 0.0000 
-0.0258 0.0023 -0.1216 2.1044 -0.0417 -0.4464 10.9289 -0.3942 -2.2926 0.0000 0.0000 0.0000 0.0000 0.0000 0.0000 0.0000 0.0000 0.0000 2.6441 6.7137 5.5207 17.2197 -7.2679 -62.3362 0.0000 -31.0823 0.0000 -2.0594 -14.2479 -13.3142 -16.5506 29.2782 14.6458 -49.1089 -20.7039 47.7374 1.1791 40.7319 -3.3349 -31.8532 -18.5967 -11.3315 0.0000 0.0000 0.0000 0.0000 0.0000 0.0000 0.0000 0.0000 0.0000 0.0000 0.0000 0.0000 0.0000 0.0000 0.0000 0.0000 0.0000 0.0000 
-0.0258 0.0023 -0.1216 2.1044 -0.0417 -0.4464 10.9289 -0.3942 -2.2926 0.0000 0.0000 0.0000 0.0000 0.0000 0.0000 0.0000 0.0000 0.0000 2.6441 6.7137 5.5207 17.2197 -7.2679 -62.3362 0.0000 -31.0823 0.0000 -2.0594 -14.2479 -13.3142 -16.8538 29.0823 13.9967 -55.3181 -18.1866 44.1454 1.4685 49.0118 -3.3403 -33.5045 -14.5874 -14.0430 0.0000 0.0000 0.0000 0.0000 0.0000 0.0000 0.0000 0.0000 0.0000 0.0000 0.0000 0.0000 0.0000 0.0000 0.0000 0.0000 0.0000 0.0000 
-0.0258 0.0023 -0.1216 2.1044 -0.0417 -0.4464 10.9289 -0.3942 -2.2926 0.0000 0.0000 0.0000 0.0000 0.0000 0.0000 0.0000 0.0000 0.0000 2.6441 6.7137 5.5207 17.2197 -7.2679 -62.3362 0.0000 -31.0823 0.0000 -2.0594 -14.2479 -13.3142 -17.1116 28.9038 13.1999 -62.2276 -15.0573 38.7081 1.9193 59.2273 -3.4611 -34.9124 -9.7437 -16.9459 0.0000 0.0000 0.0000 0.0000 0.0000 0.0000 0.0000 0.0000 0.0000 0.0000 0.0000 0.0000 0.0000 0.0000 0.0000 0.0000 0.0000 0.0000 
-0.0258 0.0023 -0.1216 2.1044 -0.0417 -0.4464 10.9289 -0.3942 -2.2926 0.0000 0.0000 0.0000 0.0000 0.0000 0.0000 0.0000 0.0000 0.0000 2.6441 6.7137 5.5207 17.2197 -7.2679 -62.3362 0.0000 -31.0823 0.0000 -2.0594 -14.2479 -13.3142 -17.3217 28.7477 12.3186 -69.1443 -11.6151 30.1956 2.7508 70.5634 -3.9445 -35.9603 -4.4357 -19.8535 0.0000 0.0000 0.0000 0.0000 0.0000 0.0000 0.0000 0.0000 0.0000 0.0000 0.0000 0.0000 0.0000 0.0000 0.0000 0.0000 0.0000 0.0000 
-0.0258 0.0023 -0.1216 2.1044 -0.0417 -0.4464 10.9289 -0.3942 -2.2926 0.0000 0.0000 0.0000 0.0000 0.0000 0.0000 0.0000 0.0000 0.0000 2.6441 6.7137 5.5207 17.2197 -7.2679 -62.3362 0.0000 -31.0823 0.0000 -2.0594 -14.2479 -13.3142 -17.4845 28.6177 11.4290 -73.9300 -5.8039 25.2815 5.3867 81.8902 -6.2441 -36.6088 0.8667 -22.5939 0.0000 0.0000 0.0000 0.0000 0.0000 0.0000 0.0000 0.0000 0.0000 0.0000 0.0000 0.0000 0.0000 0.0000 0.0000 0.0000 0.0000 0.0000 
-0.0258 0.0023 -0.1216 2.1044 -0.0417 -0.4464 10.9289 -0.3942 -2.2926 0.0000 0.0000 0.0000 0.0000 0.0000 0.0000 0.0000 0.0000 0.0000 2.6441 6.7137 5.5207 17.2197 -7.2679 -62.3362 0.0000 -31.0823 0.0000 -2.0594 -14.2479 -13.3142 -17.6033 28.5152 10.6074 -77.2491 0.8539 24.7790 -14.3094 92.2114 13.7506 -36.9015 5.6943 -25.0187 0.0000 0.0000 0.0000 0.0000 0.0000 0.0000 0.0000 0.0000 0.0000 0.0000 0.0000 0.0000 0.0000 0.0000 0.0000 0.0000 0.0000 0.0000 
-0.0258 0.0023 -0.1216 2.1044 -0.0417 -0.4464 10.9289 -0.3942 -2.2926 0.0000 0.0000 0.0000 0.0000 0.0000 0.0000 0.0000 0.0000 0.0000 2.6441 6.7137 5.5207 17.2197 -7.2679 -62.3362 0.0000 -31.0823 0.0000 -2.0594 -14.2479 -13.3142 -17.6837 28.4398 9.9182 -79.8655 6.3785 24.6569 -1.8195 100.4277 1.5037 -36.9420 9.6768 -27.0078 0.0000 0.0000 0.0000 0.0000 0.0000 0.0000 0.0000 0.0000 0.0000 0.0000 0.0000 0.0000 0.0000 0.0000 0.0000 0.0000 0.0000 0.0000 
-0.0258 0.0023 -0.1216 2.1044 -0.0417 -0.4464 10.9289 -0.3942 -2.2926 0.0000 0.0000 0.0000 0.0000 0.0000 0.0000 0.0000 0.0000 0.0000 2.6441 6.7137 5.5207 17.2197 -7.2679 -62.3362 0.0000 -31.0823 0.0000 -2.0594 -14.2479 -13.3142 -17.7327 28.3895 9.4058 -81.7401 10.4261 24.7284 -0.5369 106.3627 0.3971 -36.8558 12.5880 -28.4726 0.0000 0.0000 0.0000 0.0000 0.0000 0.0000 0.0000 0.0000 0.0000 0.0000 0.0000 0.0000 0.0000 0.0000 0.0000 0.0000 0.0000 0.0000 
-0.0258 0.0023 -0.1216 2.1044 -0.0417 -0.4464 10.9289 -0.3942 -2.2926 0.0000 0.0000 0.0000 0.0000 0.0000 0.0000 0.0000 0.0000 0.0000 2.6441 6.7137 5.5207 17.2197 -7.2679 -62.3362 0.0000 -31.0823 0.0000 -2.0594 -14.2479 -13.3142 -17.7575 28.3615 9.0942 -82.8549 12.8558 30.6030 -0.1124 109.8713 0.0778 -36.7544 14.3334 -29.3602 0.0000 0.0000 0.0000 0.0000 0.0000 0.0000 0.0000 0.0000 0.0000 0.0000 0.0000 0.0000 0.0000 0.0000 0.0000 0.0000 0.0000 0.0000 
-0.0258 0.0023 -0.1216 2.1044 -0.0417 -0.4464 10.9289 -0.3942 -2.2926 0.0000 0.0000 0.0000 0.0000 0.0000 0.0000 0.0000 0.0000 0.0000 2.6441 6.7137 5.5207 17.2197 -7.2679 -62.3362 0.0000 -31.0823 0.0000 -2.0594 -14.2479 -13.3142 -17.7645 28.3529 8.9908 -83.2194 13.6564 33.2702 -0.0003 111.0173 0.0003 -36.7117 14.9075 -29.6542 0.0000 0.0000 0.0000 0.0000 0.0000 0.0000 0.0000 0.0000 0.0000 0.0000 0.0000 0.0000 0.0000 0.0000 0.0000 0.0000 0.0000 0.0000 
-0.0258 0.0023 -0.1216 2.1044 -0.0417 -0.4464 10.9289 -0.3942 -2.2926 0.0000 0.0000 0.0000 0.0000 0.0000 0.0000 0.0000 0.0000 0.0000 2.6441 6.7137 5.5207 17.2197 -7.2679 -62.3362 0.0000 -31.0823 0.0000 -2.0594 -14.2479 -13.3142 -17.7271 28.3751 9.0887 -82.7161 12.8924 30.1934 -0.1124 109.8713 0.0778 -36.6840 14.3031 -29.3336 0.0000 0.0000 0.0000 0.0000 0.0000 0.0000 0.0000 0.0000 0.0000 0.0000 0.0000 0.0000 0.0000 0.0000 0.0000 0.0000 0.0000 0.0000 
-0.0258 0.0023 -0.1216 2.1044 -0.0417 -0.4464 10.9289 -0.3942 -2.2926 0.0000 0.0000 0.0000 0.0000 0.0000 0.0000 0.0000 0.0000 0.0000 2.6441 6.7137 5.5207 17.2197 -7.2679 -62.3362 0.0000 -31.0823 0.0000 -2.0594 -14.2479 -13.3142 -17.6146 28.4424 9.3843 -81.1963 10.5646 24.7273 -0.5369 106.3626 0.3971 -36.5791 12.4712 -28.3643 0.0000 0.0000 0.0000 0.0000 0.0000 0.0000 0.0000 0.0000 0.0000 0.0000 0.0000 0.0000 0.0000 0.0000 0.0000 0.0000 0.0000 0.0000 
-0.0258 0.0023 -0.1216 2.1044 -0.0417 -0.4464 10.9289 -0.3942 -2.2926 0.0000 0.0000 0.0000 0.0000 0.0000 0.0000 0.0000 0.0000 0.0000 2.6441 6.7137 5.5207 17.2197 -7.2679 -62.3362 0.0000 -31.0823 0.0000 -2.0594 -14.2479 -13.3142 -17.4298 28.5546 9.8719 -78.6815 6.6631 24.6900 -1.8194 100.4277 1.5036 -36.3366 9.4296 -26.7578 0.0000 0.0000 0.0000 0.0000 0.0000 0.0000 0.0000 0.0000 0.0000 0.0000 0.0000 0.0000 0.0000 0.0000 0.0000 0.0000 0.0000 0.0000 
-0.0258 0.0023 -0.1216 2.1044 -0.0417 -0.4464 10.9289 -0.3942 -2.2926 0.0000 0.0000 0.0000 0.0000 0.0000 0.0000 0.0000 0.0000 0.0000 2.6441 6.7137 5.5207 17.2197 -7.2679 -62.3362 0.0000 -31.0823 0.0000 -2.0594 -14.2479 -13.3142 -17.1818 28.7082 10.5304 -75.2451 1.3024 24.9182 -14.3094 92.2114 13.7508 -35.8708 5.2952 -24.5637 0.0000 0.0000 0.0000 0.0000 0.0000 0.0000 0.0000 0.0000 0.0000 0.0000 0.0000 0.0000 0.0000 0.0000 0.0000 0.0000 0.0000 0.0000 
-0.0258 0.0023 -0.1216 2.1044 -0.0417 -0.4464 10.9289 -0.3942 -2.2926 0.0000 0.0000 0.0000 0.0000 0.0000 0.0000 0.0000 0.0000 0.0000 2.6441 6.7137 5.5207 17.2197 -7.2679 -62.3362 0.0000 -31.0823 0.0000 -2.0594 -14.2479 -13.3142 -16.8868 28.8955 11.3195 -71.0135 -5.1950 25.6318 5.3868 81.8902 -6.2442 -35.0994 0.3264 -21.8768 0.0000 0.0000 0.0000 0.0000 0.0000 0.0000 0.0000 0.0000 0.0000 0.0000 0.0000 0.0000 0.0000 0.0000 0.0000 0.0000 0.0000 0.0000 
-0.0258 0.0023 -0.1216 2.1044 -0.0417 -0.4464 10.9289 -0.3942 -2.2926 0.0000 0.0000 0.0000 0.0000 0.0000 0.0000 0.0000 0.0000 0.0000 2.6441 6.7137 5.5207 17.2197 -7.2679 -62.3362 0.0000 -31.0823 0.0000 -2.0594 -14.2479 -13.3142 -16.5680 29.1038 12.1801 -66.1717 -12.2657 26.9960 2.7508 70.5634 -3.9446 -33.9835 -5.0704 -18.8438 0.0000 0.0000 0.0000 0.0000 0.0000 0.0000 0.0000 0.0000 0.0000 0.0000 0.0000 0.0000 0.0000 0.0000 0.0000 0.0000 0.0000 0.0000 
-0.0258 0.0023 -0.1216 2.1044 -0.0417 -0.4464 10.9289 -0.3942 -2.2926 0.0000 0.0000 0.0000 0.0000 0.0000 0.0000 0.0000 0.0000 0.0000 2.6441 6.7137 5.5207 17.2197 -7.2679 -62.3362 0.0000 -31.0823 0.0000 -2.0594 -14.2479 -13.3142 -16.2522 29.3162 13.0411 -59.4064 -16.3749 34.1936 1.9193 59.2273 -3.4610 -32.5650 -10.3990 -15.6660 0.0000 0.0000 0.0000 0.0000 0.0000 0.0000 0.0000 0.0000 0.0000 0.0000 0.0000 0.0000 0.0000 0.0000 0.0000 0.0000 0.0000 0.0000 
-0.0258 0.0023 -0.1216 2.1044 -0.0417 -0.4464 10.9289 -0.3942 -2.2926 0.0000 0.0000 0.0000 0.0000 0.0000 0.0000 0.0000 0.0000 0.0000 2.6441 6.7137 5.5207 17.2197 -7.2679 -62.3362 0.0000 -31.0823 0.0000 -2.0594 -14.2479 -13.3142 -15.9652 29.5146 13.8313 -52.4551 -19.3833 40.3826 1.4685 49.0118 -3.3403 -30.9799 -15.1838 -12.5900 0.0000 0.0000 0.0000 0.0000 0.0000 0.0000 0.0000 0.0000 0.0000 0.0000 0.0000 0.0000 0.0000 0.0000 0.0000 0.0000 0.0000 0.0000 
-0.0258 0.0023 -0.1216 2.1044 -0.0417 -0.4464 10.9289 -0.3942 -2.2926 0.0000 0.0000 0.0000 0.0000 0.0000 0.0000 0.0000 0.0000 0.0000 2.6441 6.7137 5.5207 17.2197 -7.2679 -62.3362 0.0000 -31.0823 0.0000 -2.0594 -14.2479 -13.3142 -15.7276 29.6829 14.4914 -46.4508 -21.6917 44.8730 1.1791 40.7320 -3.3349 -29.4341 -19.0730 -9.8805 0.0000 0.0000 0.0000 0.0000 0.0000 0.0000 0.0000 0.0000 0.0000 0.0000 0.0000 0.0000 0.0000 0.0000 0.0000 0.0000 0.0000 0.0000 
-0.0258 0.0023 -0.1216 2.1044 -0.0417 -0.4464 10.9289 -0.3942 -2.2926 0.0000 0.0000 0.0000 0.0000 0.0000 0.0000 0.0000 0.0000 0.0000 2.6441 6.7137 5.5207 17.2197 -7.2679 -62.3362 0.0000 -31.0823 0.0000 -2.0594 -14.2479 -13.3142 -15.5528 29.8091 14.9804 -41.9258 -23.2462 47.9770 0.9915 34.7918 -3.3626 -28.1509 -21.8772 -7.7790 0.0000 0.0000 0.0000 0.0000 0.0000 0.0000 0.0000 0.0000 0.0000 0.0000 0.0000 0.0000 0.0000 0.0000 0.0000 0.0000 0.0000 0.0000 
-0.0258 0.0023 -0.1216 2.1044 -0.0417 -0.4464 10.9289 -0.3942 -2.2926 0.0000 0.0000 0.0000 0.0000 0.0000 0.0000 0.0000 0.0000 0.0000 2.6441 6.7137 5.5207 17.2197 -7.2679 -62.3362 0.0000 -31.0823 0.0000 -2.0594 -14.2479 -13.3142 -15.4473 29.8863 15.2771 -39.1615 -24.1161 49.7973 0.8849 31.2819 -3.3888 -27.3130 -23.5412 -6.4619 0.0000 0.0000 0.0000 0.0000 0.0000 0.0000 0.0000 0.0000 0.0000 0.0000 0.0000 0.0000 0.0000 0.0000 0.0000 0.0000 0.0000 0.0000 
-0.0258 0.0023 -0.1216 2.1044 -0.0417 -0.4464 10.9289 -0.3942 -2.2926 0.0000 0.0000 0.0000 0.0000 0.0000 0.0000 0.0000 0.0000 0.0000 2.6441 6.7137 5.5207 17.2197 -7.2679 -62.3362 0.0000 -31.0823 0.0000 -2.0594 -14.2479 -13.3142 -15.4124 29.9119 15.3753 -38.2436 -24.3916 50.3920 0.8505 30.1356 -3.3987 -27.0253 -24.0858 -6.0181 0.0000 0.0000 0.0000 0.0000 0.0000 0.0000 0.0000 0.0000 0.0000 0.0000 0.0000 0.0000 0.0000 0.0000 0.0000 0.0000 0.0000 0.0000 
