HIERARCHY
ROOT hip
{
	OFFSET 0.00 0.00 0.00
	CHANNELS 6 Xposition Yposition Zposition Xrotation Yrotation Zrotation
	JOINT abdomen
	{
		OFFSET 0.0000 3.3100 -0.0000
		CHANNELS 3 Xrotation Yrotation Zrotation
		JOINT chest
		{
			OFFSET 0.0000 8.0660 -0.6050
			CHANNELS 3 Xrotation Yrotation Zrotation
			JOINT neck
			{
				OFFSET 0.0000 9.8861 -0.3705
				CHANNELS 3 Xrotation Yrotation Zrotation
				JOINT head
				{
					OFFSET 0.0000 2.9776 -0.0000
					CHANNELS 3 Xrotation Yrotation Zrotation
					End Site
					{
						OFFSET 0.0000 3.1102 -0.0000
					}
				}
			}
			JOINT lCollar
			{
				OFFSET 2.8220 6.5116 -0.8157
				CHANNELS 3 Xrotation Yrotation Zrotation
				JOINT lShldr
				{
					OFFSET 3.1102 0.0000 0.0000
					CHANNELS 3 Xrotation Yrotation Zrotation
					JOINT lForeArm
					{
						OFFSET 10.9354 0.0000 0.0000
						CHANNELS 3 Xrotation Yrotation Zrotation
						JOINT lHand
						{
							OFFSET 9.5165 0.0000 0.0000
							CHANNELS 3 Xrotation Yrotation Zrotation
							End Site
							{
								OFFSET 3.9370 0.0000 0.0000
							}
						}
					}
				}
			}
			JOINT rCollar
			{
				OFFSET -2.8346 6.5116 -0.8157
				CHANNELS 3 Xrotation Yrotation Zrotation
				JOINT rShldr
				{
					OFFSET -3.1267 0.0000 0.0000
					CHANNELS 3 Xrotation Yrotation Zrotation
					JOINT rForeArm
					{
						OFFSET -10.9354 0.0000 0.0000
						CHANNELS 3 Xrotation Yrotation Zrotation
						JOINT rHand
						{
							OFFSET -9.5236 0.0000 0.0000
							CHANNELS 3 Xrotation Yrotation Zrotation
							End Site
							{
								OFFSET -3.9370 0.0000 0.0000
							}
						}
					}
				}
			}
		}
	}
	JOINT rThigh
	{
		OFFSET -5.0711 -1.6176 1.3236
		CHANNELS 3 Xrotation Yrotation Zrotation
		JOINT rShin
		{
			OFFSET 1.9148 -19.3276 -0.0307
			CHANNELS 3 Xrotation Yrotation Zrotation
			JOINT rFoot
			{
				OFFSET 0.0000 -18.4446 -1.1366
				CHANNELS 3 Xrotation Yrotation Zrotation
				End Site
				{
					OFFSET 0.0000 -2.3873 4.4077
				}
			}
		}
	}
	JOINT lThigh
	{
		OFFSET 4.9907 -1.6141 1.3290
		CHANNELS 3 Xrotation Yrotation Zrotation
		JOINT lShin
		{
			OFFSET -1.7940 -19.3328 -0.0349
			CHANNELS 3 Xrotation Yrotation Zrotation
			JOINT lFoot
			{
				OFFSET 0.0543 -18.4448 -1.1373
				CHANNELS 3 Xrotation Yrotation Zrotation
				End Site
				{
					OFFSET 0.0000 -2.3866 4.4077
				}
			}
		}
	}
}
MOTION
Frames: 76
Frame Time: 0.041667
0.0000 0.0000 0.0969 0.0000 0.0000 0.0000 0.0000 0.0000 0.0000 1.0000 0.0000 0.0000 1.0000 0.0000 0.0000 1.0000 0.0000 0.0000 0.0000 0.0000 0.0000 0.0000 0.0000 0.0000 0.0000 0.0000 0.0000 0.0000 0.0000 0.0000 0.0000 0.0000 0.0000 0.0000 0.0000 0.0000 0.0000 0.0000 0.0000 0.0000 0.0000 0.0000 1.0000 0.0000 0.0000 1.0000 0.0000 0.0000 1.0000 0.0000 0.0000 1.0000 0.0000 0.0000 1.0000 0.0000 0.0000 1.0000 0.0000 0.0000 
-0.0258 0.0023 -0.1216 2.1044 -0.0417 -0.4464 10.9289 -0.3942 -2.2926 0.0000 0.0000 0.0000 0.0000 0.0000 0.0000 0.0000 0.0000 0.0000 1.9626 6.2571 5.8732 3.1111 -13.8184 -67.9737 0.0000 -55.8021 0.0000 -2.0594 -14.2479 -13.3142 -2.2516 34.3933 11.2688 5.7249 -0.5475 22.5115 0.0000 52.4418 0.0000 -0.8559 14.6876 5.1540 0.0000 0.0000 0.0000 0.0000 0.0000 0.0000 0.0000 0.0000 0.0000 0.0000 0.0000 0.0000 0.0000 0.0000 0.0000 0.0000 0.0000 0.0000 
-0.0278 -0.0423 -0.1234 2.1228 -0.0407 -0.4431 10.9106 -0.3953 -2.2957 -0.0019 -0.0007 -0.0065 0.0000 0.0000 0.0000 0.0000 0.0000 0.0000 1.9669 6.2617 5.8769 3.1930 -13.8219 -67.9640 0.0000 -56.0500 0.0000 -2.0708 -14.3036 -13.3327 -2.2511 34.3933 11.2689 5.7322 -0.5404 22.5247 0.0000 52.4972 0.0000 -0.8568 14.6988 5.1573 -0.3714 -0.0266 0.0300 0.5464 0.0300 0.0015 -0.1822 0.0148 -0.0246 -0.3726 -0.0036 0.0023 0.5474 0.0276 0.0030 -0.1821 0.0103 -0.0275 
-0.0337 -0.1772 -0.1289 2.1786 -0.0376 -0.4330 10.8551 -0.3987 -2.3048 -0.0076 -0.0029 -0.0260 0.0000 0.0000 0.0000 0.0000 0.0000 0.0000 1.9799 6.2758 5.8879 3.4402 -13.8326 -67.9363 0.0000 -56.8050 0.0000 -2.1055 -14.4729 -13.3893 -2.2496 34.3934 11.2692 5.7542 -0.5193 22.5644 0.0000 52.6643 0.0000 -0.8597 14.7324 5.1671 -1.4970 -0.1084 0.1199 2.2076 0.1248 0.0028 -0.7333 0.0603 -0.0987 -1.5017 -0.0145 0.0106 2.2115 0.1149 0.0089 -0.7328 0.0418 -0.1105 
-0.0436 -0.4020 -0.1381 2.2717 -0.0323 -0.4164 10.7628 -0.4043 -2.3197 -0.0172 -0.0066 -0.0587 0.0000 0.0000 0.0000 0.0000 0.0000 0.0000 2.0015 6.2992 5.9062 3.8519 -13.8504 -67.8933 0.0000 -58.0760 0.0000 -2.1643 -14.7564 -13.4853 -2.2472 34.3936 11.2698 5.7910 -0.4838 22.6308 0.0000 52.9443 0.0000 -0.8644 14.7886 5.1835 -3.3815 -0.2492 0.2669 5.0059 0.2951 -0.0077 -1.6527 0.1377 -0.2215 -3.3925 -0.0334 0.0279 5.0151 0.2713 0.0075 -1.6515 0.0959 -0.2485 
-0.0574 -0.7131 -0.1508 2.4004 -0.0250 -0.3933 10.6352 -0.4119 -2.3397 -0.0307 -0.0118 -0.1045 0.0000 0.0000 0.0000 0.0000 0.0000 0.0000 2.0313 6.3316 5.9316 4.4207 -13.8749 -67.8392 0.0000 -59.8564 0.0000 -2.2475 -15.1513 -13.6212 -2.2437 34.3937 11.2705 5.8425 -0.4340 22.7240 0.0000 53.3372 0.0000 -0.8711 14.8676 5.2066 -6.0050 -0.4533 0.4636 8.9343 0.5542 -0.0525 -2.9263 0.2482 -0.3896 -6.0253 -0.0609 0.0571 8.9512 0.5080 -0.0214 -2.9242 0.1741 -0.4385 
-0.0745 -1.1023 -0.1667 2.5614 -0.0157 -0.3644 10.4756 -0.4210 -2.3639 -0.0481 -0.0185 -0.1637 0.0000 0.0000 0.0000 0.0000 0.0000 0.0000 2.0687 6.3722 5.9634 5.1315 -13.9056 -67.7795 0.0000 -62.1178 0.0000 -2.3546 -15.6492 -13.7960 -2.2393 34.3938 11.2714 5.9086 -0.3699 22.8436 0.0000 53.8418 0.0000 -0.8798 14.9689 5.2362 -9.3112 -0.7229 0.6979 13.9330 0.9101 -0.1672 -4.5223 0.3919 -0.5967 -9.3438 -0.0983 0.1016 13.9603 0.8312 -0.1091 -4.5192 0.2772 -0.6746 
-0.0946 -1.5566 -0.1852 2.7494 -0.0048 -0.3307 10.2896 -0.4310 -2.3911 -0.0694 -0.0266 -0.2361 0.0000 0.0000 0.0000 0.0000 0.0000 0.0000 2.1123 6.4195 6.0004 5.9598 -13.9416 -67.7215 0.0000 -64.8042 0.0000 -2.4841 -16.2358 -14.0070 -2.2339 34.3939 11.2726 5.9887 -0.2918 22.9889 0.0000 54.4557 0.0000 -0.8905 15.0921 5.2722 -13.1967 -1.0566 0.9529 19.8643 1.3541 -0.3969 -6.3879 0.5672 -0.8336 -13.2449 -0.1470 0.1646 19.9049 1.2321 -0.2955 -6.3837 0.4050 -0.9475 
-0.1167 -2.0579 -0.2057 2.9569 0.0073 -0.2936 10.0848 -0.4412 -2.4194 -0.0946 -0.0362 -0.3217 0.0000 0.0000 0.0000 0.0000 0.0000 0.0000 2.1603 6.4718 6.0413 6.8718 -13.9820 -67.6737 0.0000 -67.8298 0.0000 -2.6329 -16.8907 -14.2494 -2.2275 34.3939 11.2739 6.0822 -0.2002 23.1589 0.0000 55.1745 0.0000 -0.9030 15.2362 5.3145 -17.5073 -1.4461 1.2088 26.4973 1.8507 -0.7844 -8.4486 0.7697 -1.0887 -17.5738 -0.2089 0.2493 26.5533 1.6795 -0.6176 -8.4433 0.5551 -1.2450 
-0.1400 -2.5840 -0.2272 3.1746 0.0202 -0.2547 9.8703 -0.4506 -2.4468 -0.1237 -0.0472 -0.4204 0.0000 0.0000 0.0000 0.0000 0.0000 0.0000 2.2107 6.5268 6.0841 7.8262 -14.0260 -67.6450 0.0000 -71.0815 0.0000 -2.7967 -17.5879 -14.5161 -2.2203 34.3937 11.2754 6.1881 -0.0958 23.3519 0.0000 55.9919 0.0000 -0.9176 15.3999 5.3626 -22.0435 -1.8756 1.4457 33.5125 2.3379 -1.3485 -10.6117 0.9922 -1.3485 -22.1300 -0.2856 0.3580 33.5851 2.1192 -1.0926 -10.6053 0.7222 -1.5526 
-0.1632 -3.1100 -0.2487 3.3923 0.0332 -0.2159 9.6566 -0.4583 -2.4710 -0.1566 -0.0596 -0.5322 0.0000 0.0000 0.0000 0.0000 0.0000 0.0000 2.2611 6.5817 6.1269 8.7774 -14.0729 -67.6445 0.0000 -74.4283 0.0000 -2.9699 -18.2982 -14.7986 -2.2123 34.3934 11.2771 6.3053 0.0204 23.5660 0.0000 56.8997 0.0000 -0.9339 15.5816 5.4160 -26.5792 -2.3224 1.6479 40.5341 2.7437 -2.0665 -12.7739 1.2242 -1.5998 -26.6860 -0.3785 0.4923 40.6233 2.4899 -1.7021 -12.7665 0.8984 -1.8553 
-0.1854 -3.6112 -0.2691 3.5997 0.0458 -0.1789 9.4540 -0.4634 -2.4898 -0.1933 -0.0733 -0.6569 0.0000 0.0000 0.0000 0.0000 0.0000 0.0000 2.3090 6.6342 6.1676 9.6800 -14.1222 -67.6800 0.0000 -77.7349 0.0000 -3.1458 -18.9916 -15.0869 -2.2035 34.3929 11.2789 6.4321 0.1473 23.7985 0.0000 57.8873 0.0000 -0.9519 15.7791 5.4742 -30.8883 -2.7606 1.8068 47.1839 3.0149 -2.8731 -14.8321 1.4539 -1.8308 -31.0142 -0.4876 0.6530 47.2887 2.7465 -2.3924 -14.8238 1.0737 -2.1394 
-0.2054 -4.0653 -0.2877 3.7877 0.0573 -0.1455 9.2718 -0.4650 -2.5009 -0.2338 -0.0883 -0.7941 0.0000 0.0000 0.0000 0.0000 0.0000 0.0000 2.3525 6.6817 6.2044 10.4934 -14.1733 -67.7576 0.0001 -80.8767 0.0001 -3.3180 -19.6412 -15.3716 -2.1942 34.3920 11.2808 6.5670 0.2832 24.0465 0.0000 58.9420 0.0000 -0.9715 15.9898 5.5365 -34.7719 -3.1646 1.9214 53.1360 3.1376 -3.6811 -16.6942 1.6688 -2.0327 -34.9138 -0.6119 0.8403 53.2555 2.8774 -3.0918 -16.6851 1.2373 -2.3938 
-0.2226 -4.4543 -0.3036 3.9487 0.0672 -0.1168 9.1176 -0.4625 -2.5024 -0.2780 -0.1046 -0.9437 0.0000 0.0000 0.0000 0.0000 0.0000 0.0000 2.3896 6.7224 6.2360 11.1848 -14.2259 -67.8812 0.0002 -83.7508 0.0001 -3.4801 -20.2243 -15.6436 -2.1843 34.3909 11.2827 6.7078 0.4264 24.3065 0.0000 60.0489 0.0000 -0.9923 16.2108 5.6020 -38.0760 -3.5137 1.9971 58.1536 3.1380 -4.4092 -18.2862 1.8576 -2.1997 -38.2300 -0.7489 1.0543 58.2868 2.9050 -3.7340 -18.2764 1.3791 -2.6106 
-0.2364 -4.7651 -0.3163 4.0774 0.0752 -0.0940 8.9968 -0.4557 -2.4930 -0.3257 -0.1221 -1.1052 0.0000 0.0000 0.0000 0.0000 0.0000 0.0000 2.4193 6.7550 6.2612 11.7308 -14.2794 -68.0526 0.0002 -86.2822 0.0001 -3.6268 -20.7244 -15.8957 -2.1741 34.3894 11.2847 6.8525 0.5748 24.5747 0.0000 61.1918 0.0000 -1.0143 16.4389 5.6698 -40.6978 -3.7934 2.0428 62.0962 3.0657 -5.0014 -19.5560 2.0116 -2.3291 -40.8592 -0.8953 1.2955 62.2420 2.8717 -4.2739 -19.5457 1.4907 -2.7852 
-0.2463 -4.9897 -0.3254 4.1704 0.0810 -0.0774 8.9127 -0.4443 -2.4714 -0.3769 -0.1406 -1.2783 0.0000 0.0000 0.0000 0.0000 0.0000 0.0000 2.4408 6.7785 6.2794 12.1169 -14.3329 -68.2719 0.0004 -88.4232 0.0001 -3.7540 -21.1308 -16.1222 -2.1636 34.3874 11.2867 6.9989 0.7263 24.8471 0.0000 62.3531 0.0000 -1.0370 16.6706 5.7389 -42.5812 -3.9955 2.0677 64.9035 2.9730 -5.4290 -20.4723 2.1245 -2.4204 -42.7452 -1.0465 1.5645 65.0604 2.8227 -4.6890 -20.4617 1.5661 -2.9157 
-0.2523 -5.1245 -0.3309 4.2261 0.0845 -0.0675 8.8670 -0.4285 -2.4369 -0.4314 -0.1601 -1.4624 0.0000 0.0000 0.0000 0.0000 0.0000 0.0000 2.4537 6.7927 6.2903 12.3367 -14.3856 -68.5378 -0.0016 -90.1496 -0.0001 -3.8590 -21.4380 -16.3195 -2.1531 34.3850 11.2887 7.1446 0.8785 25.1194 0.0000 63.5142 0.0000 -1.0602 16.9022 5.8081 -43.7060 -4.1165 2.0794 66.5693 2.9013 -5.6837 -21.0215 2.1928 -2.4743 -43.8681 -1.1976 1.8623 66.7355 2.7953 -4.9734 -21.0108 1.6018 -3.0018 
-0.2542 -5.1691 -0.3328 4.2446 0.0857 -0.0643 8.8598 -0.4082 -2.3893 -0.4891 -0.1806 -1.6569 0.0000 0.0000 0.0000 0.0000 0.0000 0.0000 2.4579 6.7973 6.2939 12.3894 -14.4361 -68.8483 -0.0002 -91.4548 0.0001 -3.9400 -21.6445 -16.4853 -2.1427 34.3821 11.2906 7.2875 1.0290 25.3876 0.0000 64.6571 0.0000 -1.0836 17.1302 5.8765 -44.0772 -4.1564 2.0827 67.1172 2.8750 -5.7674 -21.2030 2.2155 -2.4920 -44.2330 -1.3428 2.1901 67.2905 2.8135 -5.1293 -21.1925 1.5965 -3.0442 
-0.2547 -5.1660 -0.3308 4.2122 0.0677 -0.0750 8.9045 -0.3660 -2.3234 -0.5498 -0.2019 -1.8613 0.0000 0.0000 0.0000 0.0000 0.0000 0.0000 2.4584 6.7924 6.2893 12.2645 -14.6169 -69.2606 -0.0002 -92.5043 -0.0001 -4.0066 -21.7939 -16.6368 -2.1325 34.3787 11.2923 7.4254 1.1755 25.6476 0.0000 65.7641 0.0000 -1.1066 17.3510 5.9430 -44.0501 -4.1535 2.0825 67.0772 2.8770 -5.7613 -21.1897 2.2138 -2.4907 -44.1584 -1.4493 2.6459 67.2668 2.8315 -5.1603 -21.1882 1.5710 -3.0645 
-0.2561 -5.1566 -0.3250 4.1142 0.0134 -0.1074 9.0159 -0.2837 -2.2343 -0.6132 -0.2239 -2.0747 0.0000 0.0000 0.0000 0.0000 0.0000 0.0000 2.4593 6.7772 6.2756 11.9444 -15.0618 -69.8348 -0.0002 -93.4509 0.0000 -4.0681 -21.9281 -16.7903 -2.1227 34.3747 11.2940 7.5564 1.3158 25.8957 0.0000 66.8188 0.0000 -1.1291 17.5615 6.0065 -43.9685 -4.1447 2.0818 66.9568 2.8828 -5.7429 -21.1498 2.2089 -2.4868 -43.9462 -1.4837 3.3266 67.1757 2.7942 -5.0655 -21.1721 1.5462 -3.0835 
-0.2584 -5.1408 -0.3155 3.9526 -0.0759 -0.1611 9.1918 -0.1627 -2.1227 -0.6791 -0.2465 -2.2965 0.0000 0.0000 0.0000 0.0000 0.0000 0.0000 2.4599 6.7523 6.2529 11.4278 -15.7585 -70.5669 -0.0002 -94.2788 -0.0001 -4.1238 -22.0445 -16.9431 -2.1135 34.3702 11.2954 7.6788 1.4478 26.1287 0.0000 67.8064 0.0000 -1.1507 17.7588 6.0662 -43.8319 -4.1300 2.0805 66.7553 2.8925 -5.7121 -21.0830 2.2005 -2.4803 -43.5938 -1.4400 4.2206 67.0042 2.7031 -4.8474 -21.1401 1.5219 -3.1008 
-0.2615 -5.1185 -0.3025 3.7342 -0.1963 -0.2340 9.4252 -0.0072 -1.9906 -0.7474 -0.2695 -2.5257 0.0000 0.0000 0.0000 0.0000 0.0000 0.0000 2.4590 6.7185 6.2225 10.7269 -16.6721 -71.4408 -0.0001 -94.9746 -0.0001 -4.1731 -22.1415 -17.0918 -2.1048 34.3651 11.2967 7.7912 1.5698 26.3437 0.0000 68.7142 0.0000 -1.1711 17.9401 6.1213 -43.6401 -4.1094 2.0788 66.4720 2.9059 -5.6688 -20.9893 2.1888 -2.4712 -43.1075 -1.3150 5.2963 66.7401 2.5638 -4.5193 -21.0877 1.4981 -3.1164 
-0.2651 -5.0897 -0.2870 3.4724 -0.3401 -0.3219 9.7024 0.1747 -1.8417 -0.8177 -0.2930 -2.7614 0.0000 0.0000 0.0000 0.0000 0.0000 0.0000 2.4554 6.6779 6.1861 9.8738 -17.7418 -72.4229 -0.0001 -95.5306 0.0000 -4.2157 -22.2179 -17.2320 -2.0969 34.3595 11.2978 7.8923 1.6803 26.5382 0.0000 69.5316 0.0000 -1.1899 18.1036 6.1712 -43.3927 -4.0827 2.0763 66.1062 2.9225 -5.6128 -20.8684 2.1737 -2.4593 -42.5054 -1.1114 6.4987 66.3742 2.3865 -4.1067 -21.0107 1.4743 -3.1301 
-0.2689 -5.0542 -0.2700 3.1867 -0.4963 -0.4184 10.0038 0.3713 -1.6812 -0.8897 -0.3167 -3.0026 0.0000 0.0000 0.0000 0.0000 0.0000 0.0000 2.4475 6.6334 6.1468 8.9236 -18.8839 -73.4603 -0.0001 -95.9479 -0.0001 -4.2518 -22.2740 -17.3593 -2.0897 34.3533 11.2986 7.9814 1.7779 26.7104 0.0000 70.2504 0.0000 -1.2070 18.2474 6.2152 -43.0894 -4.0501 2.0733 65.6573 2.9421 -5.5442 -20.7203 2.1553 -2.4448 -41.8181 -0.8401 7.7512 65.9042 2.1868 -3.6472 -20.9056 1.4502 -3.1420 
-0.2725 -5.0120 -0.2529 2.9006 -0.6521 -0.5157 10.3059 0.5681 -1.5148 -0.9632 -0.3405 -3.2484 0.0000 0.0000 0.0000 0.0000 0.0000 0.0000 2.4341 6.5887 6.1077 7.9506 -20.0033 -74.4844 -0.0002 -96.2380 -0.0001 -4.2822 -22.3117 -17.4694 -2.0834 34.3466 11.2992 8.0577 1.8618 26.8589 0.0000 70.8643 0.0000 -1.2221 18.3702 6.2529 -42.7303 -4.0115 2.0694 65.1248 2.9642 -5.4628 -20.5450 2.1335 -2.4276 -41.0843 -0.5210 8.9654 65.3366 1.9836 -3.1853 -20.7705 1.4256 -3.1522 
-0.2753 -4.9629 -0.2370 2.6376 -0.7946 -0.6057 10.5854 0.7510 -1.3481 -1.0378 -0.3643 -3.4975 0.0000 0.0000 0.0000 0.0000 0.0000 0.0000 2.4144 6.5473 6.0723 7.0367 -21.0106 -75.4214 -0.0001 -96.4215 0.0000 -4.3081 -22.3340 -17.5598 -2.0780 34.3394 11.2996 8.1207 1.9312 26.9826 0.0000 71.3689 0.0000 -1.2352 18.4713 6.2841 -42.3152 -3.9669 2.0646 64.5084 2.9881 -5.3686 -20.3427 2.1084 -2.4076 -40.3448 -0.1801 10.0562 64.6861 1.7967 -2.7642 -20.6058 1.3999 -3.1611 
-0.2769 -4.9071 -0.2235 2.4175 -0.9132 -0.6813 10.8226 0.9077 -1.1857 -1.1131 -0.3881 -3.7490 0.0000 0.0000 0.0000 0.0000 0.0000 0.0000 2.3880 6.5122 6.0434 6.2570 -21.8366 -76.2051 -0.0002 -96.5241 -0.0001 -4.3308 -22.3447 -17.6290 -2.0735 34.3317 11.2997 8.1703 1.9857 27.0810 0.0000 71.7618 0.0000 -1.2461 18.5499 6.3085 -41.8442 -3.9163 2.0587 63.8076 3.0133 -5.2617 -20.1133 2.0801 -2.3849 -39.6352 0.1552 10.9561 63.9725 1.6440 -2.4182 -20.4139 1.3731 -3.1689 
-0.2771 -4.8445 -0.2131 2.2539 -1.0009 -0.7376 11.0042 1.0300 -1.0304 -1.1890 -0.4116 -4.0016 0.0000 0.0000 0.0000 0.0000 0.0000 0.0000 2.3550 6.4856 6.0226 5.6681 -22.4384 -76.7873 -0.0002 -96.5718 -0.0001 -4.3517 -22.3477 -17.6775 -2.0700 34.3235 11.2996 8.2064 2.0249 27.1537 0.0000 72.0418 0.0000 -1.2546 18.6059 6.3261 -41.3177 -3.8598 2.0517 63.0226 3.0389 -5.1421 -19.8572 2.0485 -2.3594 -38.9813 0.4608 11.6224 63.2168 1.5390 -2.1684 -20.1984 1.3450 -3.1760 
-0.2757 -4.7753 -0.2062 2.1541 -1.0541 -0.7719 11.1233 1.1133 -0.8839 -1.2649 -0.4347 -4.2543 0.0000 0.0000 0.0000 0.0000 0.0000 0.0000 2.3160 6.4684 6.0112 5.3035 -22.7969 -77.1412 -0.0002 -96.5876 -0.0001 -4.3720 -22.3464 -17.7068 -2.0674 34.3149 11.2992 8.2289 2.0489 27.2008 0.0001 72.2089 0.0000 -1.2609 18.6393 6.3367 -40.7360 -3.7975 2.0434 62.1533 3.0641 -5.0100 -19.5746 2.0138 -2.3310 -38.3991 0.7188 12.0359 62.4371 1.4900 -2.0234 -19.9631 1.3156 -3.1827 
-0.2727 -4.6996 -0.2030 2.1200 -1.0716 -0.7833 11.1778 1.1563 -0.7467 -1.3406 -0.4574 -4.5059 0.0000 0.0000 0.0000 0.0000 0.0000 0.0000 2.2715 6.4611 6.0092 5.1755 -22.9102 -77.2597 -0.0002 -96.5896 -0.0002 -4.3926 -22.3434 -17.7187 -2.0657 34.3059 11.2986 8.2381 2.0578 27.2224 0.0000 72.2643 0.0000 -1.2649 18.6503 6.3406 -40.0998 -3.7295 2.0335 61.2003 3.0880 -4.8657 -19.2658 1.9761 -2.2999 -37.8959 0.9181 12.1960 61.6473 1.5013 -1.9822 -19.7122 1.2848 -3.1891 
-0.2688 -4.6176 -0.2015 2.1186 -1.0706 -0.7830 11.2020 1.1771 -0.6010 -1.4157 -0.4796 -4.7552 0.0000 0.0000 0.0000 0.0000 0.0000 0.0000 2.1857 6.4842 6.0917 4.4493 -22.1753 -76.6834 -0.0001 -96.1658 -0.0001 -4.4069 -22.2630 -17.4713 -2.0725 34.2704 11.2726 7.8455 1.6442 26.7881 0.0000 71.5715 0.0000 -1.2753 18.5193 6.2351 -39.4098 -3.6558 2.0220 60.1640 3.1094 -4.7095 -18.9314 1.9355 -2.2659 -37.4484 1.0817 12.2306 60.8395 1.5445 -1.9905 -19.4464 1.2533 -3.1965 
-0.2644 -4.5295 -0.1999 2.1172 -1.0675 -0.7820 11.2299 1.1932 -0.4288 -1.4898 -0.5012 -5.0012 0.0000 0.0000 0.0000 0.0000 0.0000 0.0000 2.0217 6.5581 6.3356 2.2083 -19.9722 -74.8616 -0.0001 -94.8548 -0.0001 -4.4084 -22.0183 -16.7158 -2.0961 34.1823 11.1931 6.6300 0.4052 25.4349 0.0000 69.4702 0.0000 -1.3023 18.1241 5.9158 -38.6670 -3.5766 2.0085 59.0455 3.1274 -4.5420 -18.5719 1.8920 -2.2291 -37.0309 1.2369 12.2608 59.9970 1.5898 -1.9980 -19.1635 1.2214 -3.2057 
-0.2598 -4.4355 -0.1983 2.1159 -1.0623 -0.7803 11.2613 1.2044 -0.2305 -1.5627 -0.5221 -5.2427 0.0000 0.0000 0.0000 0.0000 0.0000 0.0000 1.7810 6.6803 6.7364 -1.7161 -16.3747 -71.5960 -0.0001 -92.6199 0.0001 -4.4015 -21.5974 -15.4670 -2.1373 34.0431 11.0567 4.5404 -1.5920 23.1186 0.0000 65.9755 0.0000 -1.3498 17.4726 5.3900 -37.8727 -3.4921 1.9930 57.8463 3.1409 -4.3637 -18.1880 1.8458 -2.1895 -36.6420 1.3830 12.2859 59.1177 1.6373 -2.0043 -18.8627 1.1891 -3.2166 
-0.2548 -4.3357 -0.1965 2.1147 -1.0550 -0.7780 11.2962 1.2109 -0.0066 -1.6340 -0.5422 -5.4787 0.0000 0.0000 0.0000 0.0000 0.0000 0.0000 1.4713 6.8436 7.2776 -7.4931 -11.6896 -66.6586 0.0002 -89.4733 -0.0005 -4.3950 -20.9958 -13.7803 -2.1962 33.8590 10.8629 1.5545 -4.1756 19.8332 0.0000 61.2095 0.0000 -1.4226 16.5935 4.6816 -37.0283 -3.4026 1.9753 56.5680 3.1488 -4.1754 -17.7805 1.7971 -2.1472 -36.2796 1.5197 12.3047 58.1995 1.6866 -2.0085 -18.5435 1.1562 -3.2288 
-0.2496 -4.2304 -0.1946 2.1135 -1.0457 -0.7749 11.3342 1.2126 0.2416 -1.7035 -0.5614 -5.7082 0.0000 0.0000 0.0000 0.0000 0.0000 0.0000 1.1077 7.0360 7.9265 -15.1386 -6.5808 -59.9539 0.0002 -85.4988 0.0001 -4.4003 -20.2218 -11.7615 -2.2715 33.6411 10.6148 -2.2660 -7.0595 15.6653 0.0000 55.4480 0.0000 -1.5235 15.5415 3.8355 -36.1357 -3.3082 1.9551 55.2129 3.1499 -3.9782 -17.3503 1.7460 -2.1021 -35.9406 1.6464 12.3160 57.2412 1.7373 -2.0101 -18.2053 1.1227 -3.2421 
-0.2440 -4.1199 -0.1927 2.1124 -1.0343 -0.7712 11.3753 1.2094 0.5124 -1.7708 -0.5798 -5.9304 0.0000 0.0000 0.0000 0.0000 0.0000 0.0000 0.7135 7.2414 8.6352 -24.2679 -2.0107 -51.7784 0.0001 -80.8632 0.0001 -4.4273 -19.2991 -9.5641 -2.3603 33.4056 10.3207 -6.7165 -9.8845 10.8506 0.0000 49.1329 0.0000 -1.6507 14.3963 2.9154 -35.1967 -3.2092 1.9322 53.7837 3.1432 -3.7730 -16.8985 1.6927 -2.0544 -35.6202 1.7628 12.3183 56.2416 1.7890 -2.0081 -17.8482 1.0886 -3.2558 
-0.2381 -4.0044 -0.1906 2.1113 -1.0207 -0.7668 11.4191 1.2015 0.8033 -1.8356 -0.5972 -6.1443 0.0000 0.0000 0.0000 0.0000 0.0000 0.0000 0.3172 7.4420 9.3456 -33.9445 1.1634 -42.9891 0.0000 -75.8030 0.0000 -4.4801 -18.2659 -7.3704 -2.4583 33.1715 9.9929 -11.4307 -12.3188 5.7871 0.0000 42.8178 0.0000 -1.7959 13.2532 1.9971 -34.2137 -3.1061 1.9066 52.2837 3.1278 -3.5612 -16.4260 1.6374 -2.0040 -35.3126 1.8692 12.3101 55.2006 1.8409 -2.0019 -17.4727 1.0537 -3.2695 
-0.2320 -3.8843 -0.1885 2.1103 -1.0052 -0.7617 11.4651 1.1891 1.1110 -1.8977 -0.6137 -6.3491 0.0000 0.0000 0.0000 0.0000 0.0000 0.0000 -0.0518 7.6215 9.9990 -42.9290 2.6873 -34.7661 0.0000 -70.5845 0.0000 -4.5536 -17.1681 -5.3604 -2.5602 32.9580 9.6461 -15.9428 -14.1667 0.9675 0.0000 37.0562 0.0000 -1.9447 12.2068 1.1559 -33.1893 -2.9990 1.8780 50.7165 3.1028 -3.3442 -15.9344 1.5803 -1.9511 -35.0108 1.9657 12.2898 54.1192 1.8925 -1.9907 -17.0799 1.0181 -3.2823 
-0.2257 -3.7598 -0.1864 2.1094 -0.9876 -0.7559 11.5128 1.1723 1.4316 -1.9569 -0.6292 -6.5441 0.0000 0.0000 0.0000 0.0000 0.0000 0.0000 -0.3682 7.7675 10.5462 -50.2290 2.9614 -28.0668 0.0000 -65.4540 0.0000 -4.6350 -16.0505 -3.6810 -2.6609 32.7808 9.2947 -19.8099 -15.4078 -3.1461 0.0000 32.2902 0.0000 -2.0803 11.3352 0.4542 -32.1263 -2.8885 1.8463 49.0866 3.0675 -3.1236 -15.4248 1.5216 -1.8958 -34.7064 2.0529 12.2559 52.9991 1.9428 -1.9740 -16.6713 0.9818 -3.2937 
-0.2191 -3.6315 -0.1841 2.1086 -0.9680 -0.7495 11.5615 1.1514 1.7606 -2.0130 -0.6436 -6.7287 0.0000 0.0000 0.0000 0.0000 0.0000 0.0000 -0.6143 7.8727 10.9528 -55.3968 2.6390 -23.3249 0.0000 -60.6016 0.0000 -4.7069 -14.9500 -2.4299 -2.7559 32.6505 8.9508 -22.7140 -16.1460 -6.2255 0.0000 28.7956 0.0000 -2.1874 10.6909 -0.0655 -31.0279 -2.7749 1.8114 47.3987 3.0214 -2.9010 -14.8989 1.4615 -1.8382 -34.3909 2.1317 12.2071 51.8434 1.9909 -1.9511 -16.2492 0.9447 -3.3027 
-0.2123 -3.4996 -0.1818 2.1078 -0.9464 -0.7425 11.6106 1.1267 2.0928 -2.0658 -0.6570 -6.9022 0.0000 0.0000 0.0000 0.0000 0.0000 0.0000 -0.7802 7.9340 11.2008 -58.4023 2.2531 -20.5701 0.0000 -56.1483 0.0000 -4.7517 -13.8924 -1.6561 -2.8421 32.5725 8.6229 -24.4902 -16.5209 -8.1019 0.0000 26.6943 0.0000 -2.2550 10.3008 -0.3806 -29.8975 -2.6588 1.7732 45.6582 2.9642 -2.6783 -14.3583 1.4003 -1.7784 -34.0555 2.2032 12.1425 50.6559 2.0360 -1.9220 -15.8162 0.9070 -3.3087 
-0.2053 -3.3645 -0.1794 2.1070 -0.9231 -0.7349 11.6592 1.0986 2.4228 -2.1151 -0.6694 -7.0642 0.0000 0.0000 0.0000 0.0000 0.0000 0.0000 -0.8631 7.9515 11.2849 -59.3742 2.0968 -19.6800 0.0000 -52.1541 0.0000 -4.7544 -12.8938 -1.3709 -2.9174 32.5481 8.3167 -25.0927 -16.6394 -8.7301 0.0000 26.0015 0.0000 -2.2779 10.1717 -0.4849 -28.7388 -2.5405 1.7316 43.8712 2.8957 -2.4572 -13.8046 1.3382 -1.7165 -33.6918 2.2686 12.0613 49.4414 2.0774 -1.8865 -15.3752 0.8686 -3.3109 
-0.1982 -3.2268 -0.1771 2.1064 -0.8979 -0.7266 11.7066 1.0675 2.7448 -2.1607 -0.6808 -7.2142 0.0000 0.0000 0.0000 0.0000 0.0000 0.0000 -0.8833 7.8395 11.1575 -59.0604 2.0133 -20.3853 0.0000 -48.1016 0.0000 -4.6944 -11.8349 -1.3262 -2.9934 32.6069 7.9948 -24.9926 -15.6517 -8.4372 0.0000 26.2949 0.0000 -2.2728 10.2075 -0.4633 -27.5556 -2.4207 1.6868 42.0438 2.8162 -2.2395 -13.2397 1.2755 -1.6528 -33.2926 2.3293 11.9635 48.2049 2.1142 -1.8449 -14.9291 0.8298 -3.3090 
-0.1909 -3.0869 -0.1746 2.1058 -0.8710 -0.7178 11.7521 1.0337 3.0535 -2.2027 -0.6911 -7.3519 0.0000 0.0000 0.0000 0.0000 0.0000 0.0000 -0.8613 7.5098 10.7670 -58.0972 1.7361 -22.5303 0.0000 -43.4698 0.0000 -4.5586 -10.5956 -1.2854 -3.0814 32.7804 7.6195 -24.6746 -12.6123 -7.5367 0.0000 27.1858 0.0000 -2.2570 10.3167 -0.3966 -26.3522 -2.2997 1.6386 40.1830 2.7260 -2.0272 -12.6656 1.2124 -1.5874 -32.8520 2.3865 11.8491 46.9514 2.1460 -1.7976 -14.4810 0.7906 -3.3023 
-0.1835 -2.9452 -0.1722 2.1053 -0.8425 -0.7085 11.7949 0.9979 3.3437 -2.2408 -0.7004 -7.4770 0.0000 0.0000 0.0000 0.0000 0.0000 0.0000 -0.8020 6.9680 10.1221 -56.4793 1.1932 -26.1084 0.0000 -38.3194 0.0000 -4.3481 -9.1968 -1.2570 -3.1784 33.0654 7.1969 -24.2263 -7.4844 -6.0574 0.0000 28.6675 0.0000 -2.2303 10.5001 -0.2834 -25.1327 -2.1782 1.5872 38.2959 2.6258 -1.8217 -12.0841 1.1492 -1.5206 -32.3656 2.4412 11.7186 45.6858 2.1723 -1.7450 -14.0334 0.7512 -3.2908 
-0.1761 -2.8023 -0.1697 2.1048 -0.8126 -0.6987 11.8344 0.9603 3.6111 -2.2750 -0.7086 -7.5892 0.0000 0.0000 0.0000 0.0000 0.0000 0.0000 -0.7157 6.2367 9.2522 -54.2603 0.2833 -31.0010 0.0000 -32.7838 0.0000 -4.0691 -7.6788 -1.2514 -3.2800 33.4496 6.7388 -23.7953 -0.3784 -4.0624 0.0000 30.6893 0.0000 -2.1932 10.7531 -0.1248 -23.9017 -2.0567 1.5328 36.3900 2.5165 -1.6249 -11.4972 1.0861 -1.4525 -31.8308 2.4943 11.5728 44.4125 2.1931 -1.6880 -13.5885 0.7117 -3.2742 
-0.1685 -2.6586 -0.1672 2.1044 -0.7813 -0.6885 11.8701 0.9214 3.8518 -2.3052 -0.7159 -7.6883 0.0000 0.0000 0.0000 0.0000 0.0000 0.0000 -0.6166 5.3596 8.2125 -51.5778 -1.0850 -36.9263 0.0000 -27.0797 0.0000 -3.7342 -6.1035 -1.2792 -3.3808 33.9094 6.2633 -23.5583 8.3289 -1.6280 0.0000 33.1437 0.0000 -2.1473 11.0650 0.0743 -22.6637 -1.9357 1.4754 34.4729 2.3992 -1.4379 -10.9072 1.0233 -1.3834 -31.2460 2.5466 11.4126 43.1352 2.2081 -1.6272 -13.1483 0.6721 -3.2526 
-0.1609 -2.5146 -0.1647 2.1040 -0.7488 -0.6779 11.9015 0.8815 4.0629 -2.3315 -0.7221 -7.7742 0.0000 0.0000 0.0000 0.0000 0.0000 0.0000 -0.5198 4.4019 7.0820 -48.6482 -2.9354 -43.4296 0.0000 -21.4947 0.0000 -3.3620 -4.5516 -1.3494 -3.4750 34.4106 5.7944 -23.6788 17.9326 1.1742 0.0000 35.8653 0.0000 -2.0948 11.4181 0.3049 -21.4233 -1.8157 1.4153 32.5523 2.2751 -1.2620 -10.3161 0.9612 -1.3135 -30.6112 2.5985 11.2389 41.8571 2.2175 -1.5633 -12.7142 0.6327 -3.2261 
-0.1533 -2.3709 -0.1622 2.1037 -0.7153 -0.6669 11.9283 0.8412 4.2423 -2.3537 -0.7273 -7.8469 0.0000 0.0000 0.0000 0.0000 0.0000 0.0000 -0.4372 3.4428 5.9542 -45.7148 -5.1773 -49.9498 0.0000 -16.3426 0.0000 -2.9760 -3.1107 -1.4671 -3.5574 34.9118 5.3581 -24.2588 27.4933 4.2717 0.0000 38.6493 0.0000 -2.0388 11.7897 0.5546 -20.1853 -1.6973 1.3527 30.6361 2.1456 -1.0981 -9.7259 0.8999 -1.2431 -29.9271 2.6503 11.0528 40.5805 2.2215 -1.4971 -12.2873 0.5934 -3.1949 
-0.1458 -2.2280 -0.1597 2.1035 -0.6810 -0.6556 11.9504 0.8007 4.3885 -2.3718 -0.7316 -7.9063 0.0000 0.0000 0.0000 0.0000 0.0000 0.0000 -0.3750 2.5619 4.9219 -42.9705 -7.6154 -55.9436 0.0000 -11.9045 0.0000 -2.6007 -1.8611 -1.6323 -3.6247 35.3715 4.9788 -25.2885 36.0813 7.5554 0.0000 41.2859 0.0000 -1.9821 12.1559 0.8099 -18.9541 -1.5810 1.2880 28.7321 2.0122 -0.9469 -9.1389 0.8396 -1.1725 -29.1950 2.7020 10.8554 39.3073 2.2203 -1.4292 -11.8682 0.5545 -3.1592 
-0.1383 -2.0863 -0.1573 2.1033 -0.6459 -0.6442 11.9677 0.7603 4.5010 -2.3858 -0.7349 -7.9523 0.0000 0.0000 0.0000 0.0000 0.0000 0.0000 -0.3333 1.8260 4.0614 -40.5079 -10.0123 -60.9969 0.0000 -8.3797 0.0000 -2.2581 -0.8621 -1.8404 -3.6754 35.7554 4.6747 -26.6004 43.0192 10.8240 0.0000 43.5975 0.0000 -1.9274 12.4953 1.0580 -17.7344 -1.4671 1.2214 26.8478 1.8763 -0.8088 -8.5570 0.7806 -1.1019 -28.3890 2.7500 10.6284 37.9825 2.2129 -1.3567 -11.4383 0.5152 -3.1138 
-0.1308 -1.9464 -0.1549 2.1031 -0.6104 -0.6325 11.9801 0.7204 4.5796 -2.3959 -0.7372 -7.9851 0.0000 0.0000 0.0000 0.0000 0.0000 0.0000 -0.3085 1.2807 3.4247 -38.3243 -12.1588 -64.8666 0.0000 -5.8705 0.0000 -1.9647 -0.1468 -2.0842 -3.7100 36.0397 4.4565 -27.8592 47.9709 13.7512 0.0000 45.4603 0.0000 -1.8762 12.7920 1.2891 -16.5306 -1.3561 1.1534 24.9907 1.7396 -0.6839 -7.9823 0.7231 -1.0316 -27.4821 2.7892 10.3531 36.5499 2.1976 -1.2762 -10.9787 0.4750 -3.0531 
-0.1235 -1.8087 -0.1525 2.1030 -0.5745 -0.6208 11.9876 0.6812 4.6246 -2.4018 -0.7386 -8.0047 0.0000 0.0000 0.0000 0.0000 0.0000 0.0000 -0.2959 0.9501 3.0390 -36.3624 -13.9090 -67.4580 0.0000 -4.3957 0.0000 -1.7316 0.2756 -2.3555 -3.7297 36.2121 4.3275 -28.6365 50.8718 15.9399 0.0000 46.8062 0.0000 -1.8296 13.0363 1.4964 -15.3471 -1.2484 1.0842 23.1676 1.6034 -0.5722 -7.4168 0.6672 -0.9619 -26.4747 2.8176 10.0294 35.0111 2.1729 -1.1883 -10.4902 0.4342 -2.9771 
-0.1163 -1.6737 -0.1502 2.1029 -0.5386 -0.6090 11.9904 0.6431 4.6367 -2.4038 -0.7391 -8.0112 0.0000 0.0000 0.0000 0.0000 0.0000 0.0000 -0.2921 0.8406 2.9113 -34.5521 -15.1777 -68.7742 0.0000 -3.9181 0.0000 -1.5641 0.4134 -2.6472 -3.7360 36.2692 4.2856 -28.5760 51.7935 17.0723 0.0000 47.6127 0.0000 -1.7878 13.2239 1.6763 -14.1879 -1.1444 1.0143 21.3854 1.4691 -0.4733 -6.8624 0.6130 -0.8930 -25.3688 2.8330 9.6580 33.3690 2.1377 -1.0938 -9.9740 0.3931 -2.8859 
-0.1092 -1.5417 -0.1479 2.1029 -0.5028 -0.5973 11.9866 0.6032 4.6041 -2.3936 -0.7367 -7.9778 0.0000 0.0000 0.0000 0.0000 0.0000 0.0000 -0.2822 0.8629 2.9240 -32.7472 -16.1346 -69.4087 0.0000 -4.1269 0.0000 -1.4348 0.3531 -2.9730 -3.7303 36.2611 4.3149 -27.8745 51.5547 17.5256 0.0000 48.1389 0.0000 -1.7471 13.3793 1.8467 -13.0570 -1.0443 0.9441 19.6502 1.3379 -0.3868 -6.3210 0.5608 -0.8252 -24.1679 2.8331 9.2403 31.6287 2.0908 -0.9939 -9.4319 0.3523 -2.7797 
-0.1023 -1.4134 -0.1457 2.1028 -0.4672 -0.5857 11.9740 0.5587 4.5138 -2.3628 -0.7295 -7.8770 0.0000 0.0000 0.0000 0.0000 0.0000 0.0000 -0.2522 0.9303 2.9625 -30.8406 -16.9781 -69.9225 0.0000 -4.7588 0.0000 -1.3155 0.1691 -3.3507 -3.7132 36.2366 4.4033 -26.8585 50.9025 17.7869 0.0000 48.6406 0.0000 -1.7033 13.5277 2.0263 -11.9581 -0.9483 0.8741 17.9678 1.2108 -0.3118 -5.7942 0.5106 -0.7588 -22.8775 2.8154 8.7787 29.7973 2.0313 -0.8900 -8.8662 0.3120 -2.6591 
-0.0956 -1.2889 -0.1436 2.1028 -0.4322 -0.5742 11.9526 0.5099 4.3655 -2.3113 -0.7173 -7.7081 0.0000 0.0000 0.0000 0.0000 0.0000 0.0000 -0.2020 1.0431 3.0269 -28.8334 -17.6997 -70.3158 0.0000 -5.8198 0.0000 -1.2082 -0.1398 -3.7793 -3.6845 36.1957 4.5513 -25.5429 49.8274 17.8784 0.0000 49.1158 0.0000 -1.6567 13.6685 2.2145 -10.8946 -0.8568 0.8045 16.3436 1.0888 -0.2478 -5.2837 0.4625 -0.6940 -21.5055 2.7778 8.2768 27.8848 1.9584 -0.7839 -8.2800 0.2729 -2.5249 
-0.0892 -1.1688 -0.1415 2.1029 -0.3978 -0.5630 11.9225 0.4570 4.1595 -2.2392 -0.7000 -7.4718 0.0000 0.0000 0.0000 0.0000 0.0000 0.0000 -0.1320 1.2010 3.1168 -26.7306 -18.2915 -70.5906 0.0000 -7.3117 0.0000 -1.1151 -0.5728 -4.2570 -3.6441 36.1386 4.7583 -23.9576 48.3224 17.8369 0.0000 49.5623 0.0000 -1.6073 13.8011 2.4107 -9.8697 -0.7698 0.7359 14.7821 0.9727 -0.1936 -4.7911 0.4167 -0.6311 -20.0619 2.7183 7.7391 25.9038 1.8720 -0.6776 -7.6771 0.2353 -2.3783 
-0.0830 -1.0533 -0.1396 2.1029 -0.3643 -0.5520 11.8837 0.4005 3.8974 -2.1472 -0.6774 -7.1699 0.0000 0.0000 0.0000 0.0000 0.0000 0.0000 -0.0429 1.4030 3.2314 -24.5415 -18.7467 -70.7522 0.0000 -9.2295 0.0000 -1.0388 -1.1267 -4.7811 -3.5921 36.0657 5.0228 -22.1441 46.3863 17.7090 0.0000 49.9781 0.0000 -1.5555 13.9249 2.6136 -8.8861 -0.6875 0.6686 13.2877 0.8629 -0.1485 -4.3176 0.3731 -0.5703 -18.5592 2.6356 7.1714 23.8698 1.7722 -0.5734 -7.0620 0.1998 -2.2207 
-0.0770 -0.9428 -0.1377 2.1030 -0.3319 -0.5414 11.8367 0.3408 3.5819 -2.0364 -0.6496 -6.8055 0.0000 0.0000 0.0000 0.0000 0.0000 0.0000 0.0640 1.6471 3.3693 -22.2805 -19.0603 -70.8083 0.0000 -11.5592 0.0000 -0.9815 -1.7956 -5.3474 -3.5289 35.9781 5.3417 -20.1508 44.0276 17.5460 0.0000 50.3612 0.0000 -1.5017 14.0394 2.8220 -7.9466 -0.6100 0.6030 11.8639 0.7599 -0.1114 -3.8647 0.3320 -0.5118 -17.0126 2.5290 6.5806 21.8009 1.6598 -0.4735 -6.4399 0.1667 -2.0539 
-0.0713 -0.8375 -0.1359 2.1031 -0.3006 -0.5311 11.7820 0.2787 3.2173 -1.9082 -0.6165 -6.3837 0.0000 0.0000 0.0000 0.0000 0.0000 0.0000 0.1872 1.9299 3.5284 -19.9672 -19.2304 -70.7698 0.0000 -14.2749 0.0000 -0.9457 -2.5703 -5.9507 -3.4550 35.8769 5.7107 -18.0282 41.2679 17.3977 0.0000 50.7101 0.0000 -1.4462 14.1441 3.0341 -7.0534 -0.5373 0.5395 10.5139 0.6640 -0.0814 -3.4334 0.2932 -0.4558 -15.4391 2.3987 5.9747 19.7178 1.5362 -0.3802 -5.8167 0.1364 -1.8800 
-0.0659 -0.7377 -0.1342 2.1032 -0.2707 -0.5213 11.7204 0.2149 2.8094 -1.7650 -0.5782 -5.9114 0.0000 0.0000 0.0000 0.0000 0.0000 0.0000 0.3242 2.2471 3.7059 -17.6264 -19.2582 -70.6503 0.0000 -17.3370 0.0000 -0.9330 -3.4382 -6.5841 -3.3715 35.7641 6.1235 -15.8250 38.1456 17.3075 0.0000 51.0234 0.0000 -1.3895 14.2386 3.2478 -6.2085 -0.4695 0.4784 9.2405 0.5753 -0.0576 -3.0248 0.2569 -0.4025 -13.8575 2.2459 5.3622 17.6429 1.4035 -0.2953 -5.1985 0.1093 -1.7015 
-0.0608 -0.6437 -0.1326 2.1033 -0.2422 -0.5120 11.6531 0.1502 2.3658 -1.6094 -0.5353 -5.3973 0.0000 0.0000 0.0000 0.0000 0.0000 0.0000 0.4722 2.5928 3.8984 -15.2872 -19.1498 -70.4656 0.0000 -20.6905 0.0000 -0.9445 -4.3829 -7.2396 -3.2795 35.6419 6.5726 -13.5859 34.7176 17.3081 0.0000 51.3008 0.0000 -1.3325 14.3227 3.4608 -5.4137 -0.4065 0.4200 8.0457 0.4938 -0.0391 -2.6398 0.2230 -0.3520 -12.2880 2.0730 4.7521 15.5999 1.2640 -0.2205 -4.5920 0.0855 -1.5208 
-0.0561 -0.5556 -0.1310 2.1034 -0.2153 -0.5032 11.5814 0.0857 1.8953 -1.4448 -0.4882 -4.8519 0.0000 0.0000 0.0000 0.0000 0.0000 0.0000 0.6281 2.9602 4.1016 -12.9815 -18.9158 -70.2328 0.0000 -24.2656 0.0000 -0.9804 -5.3849 -7.9077 -3.1808 35.5128 7.0486 -11.3501 31.0591 17.4198 0.0000 51.5421 0.0000 -1.2758 14.3964 3.6705 -4.6704 -0.3483 0.3647 6.9313 0.4195 -0.0250 -2.2793 0.1916 -0.3045 -10.7509 1.8833 4.1536 13.6126 1.1208 -0.1567 -4.0037 0.0651 -1.3408 
-0.0516 -0.4736 -0.1296 2.1035 -0.1901 -0.4950 11.5068 0.0222 1.4083 -1.2748 -0.4377 -4.2872 0.0000 0.0000 0.0000 0.0000 0.0000 0.0000 0.7882 3.3413 4.3112 -10.7429 -18.5717 -69.9693 0.0000 -27.9795 0.0000 -1.0395 -6.4219 -8.5777 -3.0773 35.3798 7.5411 -9.1521 27.2604 17.6500 0.0000 51.7481 0.0000 -1.2201 14.4599 3.8742 -3.9800 -0.2950 0.3125 5.8988 0.3521 -0.0146 -1.9438 0.1626 -0.2601 -9.2660 1.6811 3.5753 11.7042 0.9770 -0.1044 -3.4401 0.0481 -1.1640 
-0.0475 -0.3978 -0.1284 2.1036 -0.1668 -0.4873 11.4309 -0.0391 0.9157 -1.1033 -0.3850 -3.7161 0.0000 0.0000 0.0000 0.0000 0.0000 0.0000 0.9488 3.7275 4.5221 -8.6042 -18.1375 -69.6913 0.0000 -31.7406 0.0000 -1.1195 -7.4698 -9.2386 -2.9714 35.2460 8.0388 -7.0223 23.4219 17.9939 0.0000 51.9204 0.0000 -1.1663 14.5136 4.0690 -3.3433 -0.2463 0.2639 4.9490 0.2915 -0.0073 -1.6341 0.1361 -0.2191 -7.8520 1.4713 3.0251 9.8962 0.8355 -0.0634 -2.9071 0.0342 -0.9932 
-0.0437 -0.3284 -0.1272 2.1037 -0.1452 -0.4803 11.3556 -0.0975 0.4289 -0.9343 -0.3312 -3.1517 0.0000 0.0000 0.0000 0.0000 0.0000 0.0000 1.1063 4.1097 4.7297 -6.5958 -17.6361 -69.4131 0.0000 -35.4545 0.0000 -1.2169 -8.5043 -9.8789 -2.8655 35.1145 8.5303 -4.9881 19.6462 18.4361 0.0000 52.0612 0.0000 -1.1151 14.5580 4.2526 -2.7613 -0.2023 0.2190 4.0826 0.2375 -0.0024 -1.3505 0.1120 -0.1813 -6.5258 1.2593 2.5101 8.2080 0.6995 -0.0328 -2.4101 0.0234 -0.8309 
-0.0403 -0.2655 -0.1261 2.1038 -0.1257 -0.4739 11.2826 -0.1519 -0.0411 -0.7716 -0.2777 -2.6070 0.0000 0.0000 0.0000 0.0000 0.0000 0.0000 1.2570 4.4793 4.9292 -4.7440 -17.0929 -69.1465 0.0000 -39.0296 0.0000 -1.3271 -9.5015 -10.4876 -2.7621 34.9882 9.0043 -3.0750 16.0305 18.9536 0.0000 52.1733 0.0000 -1.0673 14.5940 4.4225 -2.2344 -0.1629 0.1780 3.3001 0.1897 0.0007 -1.0936 0.0904 -0.1470 -5.3017 1.0506 2.0358 6.6558 0.5715 -0.0117 -1.9536 0.0151 -0.6792 
-0.0373 -0.2092 -0.1251 2.1039 -0.1081 -0.4681 11.2135 -0.2018 -0.4840 -0.6188 -0.2258 -2.0937 0.0000 0.0000 0.0000 0.0000 0.0000 0.0000 1.3980 4.8282 5.1165 -3.0696 -16.5333 -68.9001 0.0000 -42.3832 0.0000 -1.4449 -10.4396 -11.0542 -2.6636 34.8698 9.4507 -1.3061 12.6602 19.5180 0.0000 52.2599 0.0000 -1.0235 14.6223 4.5768 -1.7632 -0.1280 0.1410 2.6016 0.1480 0.0023 -0.8634 0.0711 -0.1162 -4.1914 0.8505 1.6070 5.2528 0.4538 0.0016 -1.5412 0.0091 -0.5401 
-0.0346 -0.1595 -0.1243 2.1040 -0.0925 -0.4630 11.1498 -0.2466 -0.8909 -0.4789 -0.1770 -1.6224 0.0000 0.0000 0.0000 0.0000 0.0000 0.0000 1.5266 5.1490 5.2878 -1.5880 -15.9818 -68.6798 0.0000 -45.4452 0.0000 -1.5646 -11.2997 -11.5698 -2.5723 34.7617 9.8603 0.2970 9.6041 20.0988 0.0000 52.3247 0.0000 -0.9843 14.6440 4.7140 -1.3478 -0.0974 0.1081 1.9869 0.1119 0.0030 -0.6603 0.0542 -0.0890 -3.2040 0.6638 1.2267 4.0088 0.3479 0.0086 -1.1758 0.0050 -0.4151 
-0.0322 -0.1164 -0.1236 2.1041 -0.0790 -0.4586 11.0928 -0.2857 -1.2542 -0.3542 -0.1324 -1.2017 0.0000 0.0000 0.0000 0.0000 0.0000 0.0000 1.6406 5.4358 5.4403 -0.3088 -15.4607 -68.4888 0.0000 -48.1609 0.0000 -1.6805 -12.0662 -12.0266 -2.4901 34.6656 10.2258 1.7156 6.9130 20.6654 0.0000 52.3711 0.0000 -0.9500 14.6600 4.8330 -0.9884 -0.0712 0.0795 1.4560 0.0813 0.0029 -0.4845 0.0397 -0.0653 -2.3458 0.4948 0.8971 2.9306 0.2552 0.0110 -0.8592 0.0024 -0.3054 
-0.0303 -0.0800 -0.1230 2.1042 -0.0676 -0.4548 11.0434 -0.3190 -1.5680 -0.2469 -0.0932 -0.8384 0.0000 0.0000 0.0000 0.0000 0.0000 0.0000 1.7386 5.6838 5.5715 0.7633 -14.9892 -68.3285 0.0000 -50.4906 0.0000 -1.7876 -12.7270 -12.4188 -2.4186 34.5829 10.5413 2.9336 4.6203 21.1896 0.0000 52.4027 0.0000 -0.9209 14.6714 4.9331 -0.6849 -0.0492 0.0552 1.0083 0.0559 0.0024 -0.3359 0.0274 -0.0453 -1.6207 0.3472 0.6192 2.0217 0.1766 0.0104 -0.5925 0.0009 -0.2119 
-0.0286 -0.0502 -0.1224 2.1042 -0.0583 -0.4518 11.0024 -0.3462 -1.8281 -0.1581 -0.0601 -0.5374 0.0000 0.0000 0.0000 0.0000 0.0000 0.0000 1.8193 5.8894 5.6800 1.6282 -14.5833 -68.1990 0.0000 -52.4084 0.0000 -1.8811 -13.2737 -12.7420 -2.3589 34.5146 10.8025 3.9390 2.7447 21.6473 0.0000 52.4227 0.0000 -0.8972 14.6789 5.0142 -0.4374 -0.0313 0.0353 0.6435 0.0354 0.0017 -0.2145 0.0175 -0.0289 -1.0305 0.2236 0.3935 1.2836 0.1123 0.0080 -0.3760 0.0001 -0.1353 
-0.0274 -0.0272 -0.1221 2.1043 -0.0510 -0.4494 10.9702 -0.3673 -2.0315 -0.0888 -0.0340 -0.3019 0.0000 0.0000 0.0000 0.0000 0.0000 0.0000 1.8822 6.0504 5.7648 2.2890 -14.2555 -68.0996 0.0000 -53.9003 0.0000 -1.9573 -13.7008 -12.9937 -2.3120 34.4614 11.0068 4.7233 1.2933 22.0192 0.0000 52.4341 0.0000 -0.8789 14.6836 5.0764 -0.2454 -0.0175 0.0198 0.3609 0.0198 0.0010 -0.1204 0.0098 -0.0162 -0.5751 0.1261 0.2196 0.7155 0.0627 0.0051 -0.2095 -0.0001 -0.0758 
-0.0265 -0.0107 -0.1218 2.1043 -0.0459 -0.4477 10.9472 -0.3823 -2.1769 -0.0393 -0.0151 -0.1337 0.0000 0.0000 0.0000 0.0000 0.0000 0.0000 1.9271 6.1655 5.8252 2.7514 -14.0149 -68.0294 0.0000 -54.9613 0.0000 -2.0136 -14.0057 -13.1727 -2.2784 34.4234 11.1528 5.2822 0.2650 22.2918 0.0000 52.4397 0.0000 -0.8660 14.6862 5.1200 -0.1088 -0.0078 0.0088 0.1599 0.0087 0.0005 -0.0534 0.0043 -0.0072 -0.2534 0.0560 0.0968 0.3148 0.0276 0.0025 -0.0921 -0.0001 -0.0335 
-0.0260 -0.0009 -0.1216 2.1044 -0.0428 -0.4467 10.9335 -0.3912 -2.2638 -0.0098 -0.0038 -0.0333 0.0000 0.0000 0.0000 0.0000 0.0000 0.0000 1.9538 6.2343 5.8613 3.0227 -13.8679 -67.9876 0.0000 -55.5932 0.0000 -2.0479 -14.1877 -13.2792 -2.2583 34.4008 11.2399 5.6151 -0.3458 22.4568 0.0000 52.4416 0.0000 -0.8584 14.6874 5.1457 -0.0271 -0.0019 0.0022 0.0399 0.0022 0.0001 -0.0133 0.0011 -0.0018 -0.0627 0.0139 0.0240 0.0778 0.0068 0.0007 -0.0228 0.0000 -0.0084 
