HIERARCHY
ROOT hip
{
	OFFSET 0.00 0.00 0.00
	CHANNELS 6 Xposition Yposition Zposition Xrotation Yrotation Zrotation
	JOINT abdomen
	{
		OFFSET 0.0000 3.3100 -0.0000
		CHANNELS 3 Xrotation Yrotation Zrotation
		JOINT chest
		{
			OFFSET 0.0000 8.0660 -0.6050
			CHANNELS 3 Xrotation Yrotation Zrotation
			JOINT neck
			{
				OFFSET 0.0000 9.8861 -0.3705
				CHANNELS 3 Xrotation Yrotation Zrotation
				JOINT head
				{
					OFFSET 0.0000 2.9776 -0.0000
					CHANNELS 3 Xrotation Yrotation Zrotation
					End Site
					{
						OFFSET 0.0000 3.1102 -0.0000
					}
				}
			}
			JOINT lCollar
			{
				OFFSET 2.8220 6.5116 -0.8157
				CHANNELS 3 Xrotation Yrotation Zrotation
				JOINT lShldr
				{
					OFFSET 3.1102 0.0000 0.0000
					CHANNELS 3 Xrotation Yrotation Zrotation
					JOINT lForeArm
					{
						OFFSET 10.9354 0.0000 0.0000
						CHANNELS 3 Xrotation Yrotation Zrotation
						JOINT lHand
						{
							OFFSET 9.5165 0.0000 0.0000
							CHANNELS 3 Xrotation Yrotation Zrotation
							End Site
							{
								OFFSET 3.9370 0.0000 0.0000
							}
						}
					}
				}
			}
			JOINT rCollar
			{
				OFFSET -2.8346 6.5116 -0.8157
				CHANNELS 3 Xrotation Yrotation Zrotation
				JOINT rShldr
				{
					OFFSET -3.1267 0.0000 0.0000
					CHANNELS 3 Xrotation Yrotation Zrotation
					JOINT rForeArm
					{
						OFFSET -10.9354 0.0000 0.0000
						CHANNELS 3 Xrotation Yrotation Zrotation
						JOINT rHand
						{
							OFFSET -9.5236 0.0000 0.0000
							CHANNELS 3 Xrotation Yrotation Zrotation
							End Site
							{
								OFFSET -3.9370 0.0000 0.0000
							}
						}
					}
				}
			}
		}
	}
	JOINT rThigh
	{
		OFFSET -5.0711 -1.6176 1.3236
		CHANNELS 3 Xrotation Yrotation Zrotation
		JOINT rShin
		{
			OFFSET 1.9148 -19.3276 -0.0307
			CHANNELS 3 Xrotation Yrotation Zrotation
			JOINT rFoot
			{
				OFFSET 0.0000 -18.4446 -1.1366
				CHANNELS 3 Xrotation Yrotation Zrotation
				End Site
				{
					OFFSET 0.0000 -2.3873 4.4077
				}
			}
		}
	}
	JOINT lThigh
	{
		OFFSET 4.9907 -1.6141 1.3290
		CHANNELS 3 Xrotation Yrotation Zrotation
		JOINT lShin
		{
			OFFSET -1.7940 -19.3328 -0.0349
			CHANNELS 3 Xrotation Yrotation Zrotation
			JOINT lFoot
			{
				OFFSET 0.0543 -18.4448 -1.1373
				CHANNELS 3 Xrotation Yrotation Zrotation
				End Site
				{
					OFFSET 0.0000 -2.3866 4.4077
				}
			}
		}
	}
}
MOTION
Frames: 22
Frame Time: 0.041667
0.0000 0.0000 0.0000 1.0000 0.0000 0.0000 1.0000 0.0000 0.0000 1.0000 0.0000 0.0000 1.0000 0.0000 0.0000 1.0000 0.0000 0.0000 0.0000 0.0000 0.0000 0.0000 0.0000 0.0000 0.0000 0.0000 0.0000 0.0000 0.0000 0.0000 0.0000 0.0000 0.0000 0.0000 0.0000 0.0000 0.0000 0.0000 0.0000 0.0000 0.0000 0.0000 1.0000 0.0000 0.0000 1.0000 0.0000 0.0000 1.0000 0.0000 0.0000 0.0000 0.0000 0.0000 0.0000 0.0000 0.0000 0.5192 0.0000 0.0000 
0.4020 -0.4003 7.0740 0.0000 0.0000 0.0000 0.0000 0.0000 0.0000 0.0000 0.0000 0.0000 0.0000 0.0000 0.0000 0.0000 0.0000 0.0000 1.2376 0.9379 -22.6801 -2.7525 -11.5660 -34.0751 0.0000 -34.4311 0.0000 0.0825 -8.1969 -0.5976 -84.3153 -8.2406 -24.4267 -79.8419 9.3076 12.0719 -34.3850 72.0927 62.4781 -21.8325 24.5823 -53.5742 0.0000 0.0000 0.0000 0.0000 0.0000 0.0000 0.0000 0.0000 0.0000 12.9068 -0.7028 -0.7303 7.2076 -1.3861 0.1103 -0.4772 -0.7426 0.2797 
0.4028 -0.4003 7.0726 0.0252 0.0008 0.0130 0.1310 0.0041 0.0533 0.0000 0.0000 0.0000 0.0000 0.0000 0.0000 0.0000 0.0000 0.0000 1.4437 1.2645 -22.5543 -1.9885 -10.9319 -33.8687 0.0000 -35.1880 0.0000 0.0757 -8.5104 -0.5910 -84.4232 -8.3137 -24.3380 -78.5237 10.0533 10.6903 -33.0637 71.4407 60.4449 -22.8959 24.1244 -52.7167 0.0000 0.0000 0.0000 0.0000 0.0000 0.0000 0.0000 0.0000 0.0000 12.9068 -0.7028 -0.7303 7.2076 -1.3861 0.1103 -0.4772 -0.7426 0.2797 
0.4047 -0.4003 7.0682 0.1013 0.0031 0.0458 0.5260 0.0171 0.2141 0.0000 0.0000 0.0000 0.0000 0.0000 0.0000 0.0000 0.0000 0.0000 1.6609 1.5739 -22.4242 -0.8191 -9.3913 -33.4170 0.0000 -36.1622 0.0000 0.0684 -8.9324 -0.5704 -84.8468 -8.5816 -23.1662 -74.3814 11.4206 5.3104 -29.5515 69.3854 54.7412 -25.4347 22.4120 -50.3773 0.0000 0.0000 0.0000 0.0000 0.0000 0.0000 0.0000 0.0000 0.0000 12.9068 -0.7028 -0.7303 7.2076 -1.3861 0.1103 -0.4772 -0.7426 0.2797 
0.4077 -0.4002 7.0610 0.2260 0.0071 0.0977 1.1737 0.0408 0.4777 0.0000 0.0000 0.0000 0.0000 0.0000 0.0000 0.0000 0.0000 0.0000 1.8846 1.8600 -22.2925 0.7054 -6.9676 -32.7762 0.0000 -37.3308 0.0000 0.0608 -9.4530 -0.5364 -85.9559 -9.1534 -20.9133 -67.2538 13.9137 8.7849 -25.0319 65.7703 46.4916 -29.2195 19.2926 -46.7881 0.0000 0.0000 0.0000 0.0000 0.0000 0.0000 0.0000 0.0000 0.0000 12.9068 -0.7028 -0.7303 7.2076 -1.3861 0.1103 -0.4772 -0.7426 0.2797 
0.4116 -0.4002 7.0514 0.3922 0.0125 0.1656 2.0368 0.0770 0.8284 0.0000 0.0000 0.0000 0.0000 0.0000 0.0000 0.0000 0.0000 0.0000 2.1075 2.1158 -22.1632 2.4887 -3.7750 -32.0338 0.0000 -38.6454 0.0000 0.0534 -10.0494 -0.4910 -83.0279 34.5440 -2.1702 -57.2603 18.2343 15.2647 -20.7103 60.5920 36.9732 -33.7985 14.7013 -42.4014 0.0000 0.0000 0.0000 0.0000 0.0000 0.0000 0.0000 0.0000 0.0000 12.9068 -0.7028 -0.7303 7.2076 -1.3861 0.1103 -0.4772 -0.7426 0.2797 
0.4161 -0.4001 7.0401 0.5867 0.0192 0.2443 3.0471 0.1261 1.2384 0.0000 0.0000 0.0000 0.0000 0.0000 0.0000 0.0000 0.0000 0.0000 2.3205 2.3350 -22.0413 4.3954 -0.0473 -31.2920 0.0000 -40.0288 0.0000 0.0467 -10.6853 -0.4377 -73.0341 26.2657 -17.4888 -45.1368 24.8246 22.2435 -17.2617 54.1835 27.2057 -38.5839 8.8371 -37.8038 0.0000 0.0000 0.0000 0.0000 0.0000 0.0000 0.0000 0.0000 0.0000 12.9068 -0.7028 -0.7303 7.2076 -1.3861 0.1103 -0.4772 -0.7426 0.2797 
0.4209 -0.3999 7.0283 0.7913 0.0264 0.3265 4.1097 0.1856 1.6687 0.0000 0.0000 0.0000 0.0000 0.0000 0.0000 0.0000 0.0000 0.0000 2.5133 2.5132 -21.9323 6.2709 3.8715 -30.6409 0.0000 -41.3827 0.0000 0.0413 -11.3137 -0.3815 -51.3658 17.1788 -14.6458 -32.2054 33.1598 28.2464 -14.8221 47.2504 17.9972 -43.0213 2.2549 -33.5448 0.0000 0.0000 0.0000 0.0000 0.0000 0.0000 0.0000 0.0000 0.0000 12.9068 -0.7028 -0.7303 7.2076 -1.3861 0.1103 -0.4772 -0.7426 0.2797 
0.4254 -0.3997 7.0171 0.9858 0.0336 0.4044 5.1192 0.2495 2.0766 0.0000 0.0000 0.0000 0.0000 0.0000 0.0000 0.0000 0.0000 0.0000 2.6766 2.6493 -21.8409 7.9671 7.5884 -30.1348 0.0000 -42.6047 0.0000 0.0373 -11.8851 -0.3280 -31.9369 10.3249 -9.3151 -19.8345 41.7016 32.0816 -13.2354 40.6725 10.0277 -45.1672 -4.3688 -29.8738 0.0000 0.0000 0.0000 0.0000 0.0000 0.0000 0.0000 0.0000 0.0000 12.9068 -0.7028 -0.7303 7.2076 -1.3861 0.1103 -0.4772 -0.7426 0.2797 
0.4292 -0.3995 7.0075 1.1519 0.0399 0.4707 5.9810 0.3097 2.4241 0.0000 0.0000 0.0000 0.0000 0.0000 0.0000 0.0000 0.0000 0.0000 2.8043 2.7455 -21.7700 9.3660 10.7512 -29.7848 0.0000 -43.6097 0.0000 0.0347 -12.3577 -0.2821 -16.8052 6.4989 -3.8646 -9.0430 48.8820 33.5241 -12.2672 35.1865 3.7615 -45.9998 -10.5807 -26.6617 0.0000 0.0000 0.0000 0.0000 0.0000 0.0000 0.0000 0.0000 0.0000 12.9068 -0.7028 -0.7303 7.2076 -1.3861 0.1103 -0.4772 -0.7426 0.2797 
0.4321 -0.3993 7.0003 1.2766 0.0448 0.5204 6.6273 0.3584 2.6841 0.0000 0.0000 0.0000 0.0000 0.0000 0.0000 0.0000 0.0000 0.0000 2.8936 2.8067 -21.7207 10.3911 13.1132 -29.5701 0.0000 -44.3424 0.0000 0.0331 -12.7039 -0.2477 -6.5886 4.8151 0.2328 -0.6168 53.9260 33.2986 -11.7134 31.2026 -0.6237 -47.1705 -15.3828 -24.3517 0.0000 0.0000 0.0000 0.0000 0.0000 0.0000 0.0000 0.0000 0.0000 12.9068 -0.7028 -0.7303 7.2076 -1.3861 0.1103 -0.4772 -0.7426 0.2797 
0.4338 -0.3992 6.9959 1.3526 0.0478 0.5506 7.0213 0.3895 2.8425 0.0000 0.0000 0.0000 0.0000 0.0000 0.0000 0.0000 0.0000 0.0000 2.9451 2.8390 -21.6925 11.0065 14.5472 -29.4588 0.0000 -44.7796 0.0000 0.0324 -12.9111 -0.2266 -0.8786 4.2107 2.6152 4.7456 56.7864 32.5433 -11.4340 28.8417 -3.1663 -48.1299 -18.2737 -23.0564 0.0000 0.0000 0.0000 0.0000 0.0000 -0.0001 0.0000 0.0000 0.0000 12.9068 -0.7028 -0.7303 7.2076 -1.3861 0.1103 -0.4772 -0.7426 0.2797 
0.4344 -0.3991 6.9944 1.3778 0.0488 0.5606 7.1519 0.4000 2.8949 0.0000 0.0000 0.0000 0.0000 0.0000 0.0000 0.0000 0.0000 0.0000 2.9615 2.8485 -21.6835 11.2084 15.0213 -29.4250 0.0000 -44.9223 0.0000 0.0321 -12.9789 -0.2196 0.9269 4.0714 3.3778 6.5715 57.6922 32.1822 -11.3498 28.0713 -3.9876 -48.4888 -19.2155 -22.6529 0.0000 0.0000 0.0000 0.0000 0.0000 0.0000 0.0000 0.0000 0.0000 12.9068 -0.7028 -0.7303 7.2076 -1.3861 0.1103 -0.4772 -0.7426 0.2797 
0.4344 -0.3991 6.9944 1.3778 0.0488 0.5606 7.1519 0.4000 2.8949 0.0000 0.0000 0.0000 0.0000 0.0000 0.0000 0.0000 0.0000 0.0000 2.9615 2.8485 -21.6835 11.2084 15.0213 -29.4250 0.0000 -44.9223 0.0000 0.0321 -12.9789 -0.2196 0.9269 4.0714 3.3778 6.5715 57.6922 32.1822 -11.3498 28.0713 -3.9876 -48.4888 -19.2155 -22.6529 0.0000 0.0000 0.0000 0.0000 0.0000 0.0000 0.0000 0.0000 0.0000 12.9068 -0.7028 -0.7303 7.2076 -1.3861 0.1103 -0.4772 -0.7426 0.2797 
0.4344 -0.3991 6.9944 1.3778 0.0488 0.5606 7.1519 0.4000 2.8949 0.0000 0.0000 0.0000 0.0000 0.0000 0.0000 0.0000 0.0000 0.0000 2.9615 2.8485 -21.6835 11.2084 15.0213 -29.4250 0.0000 -44.9223 0.0000 0.0321 -12.9789 -0.2196 0.9269 4.0714 3.3778 6.5715 57.6922 32.1822 -11.3498 28.0713 -3.9876 -48.4888 -19.2155 -22.6529 0.0000 0.0000 0.0000 0.0000 0.0000 0.0000 0.0000 0.0000 0.0000 12.9068 -0.7028 -0.7303 7.2076 -1.3861 0.1103 -0.4772 -0.7426 0.2797 
0.4344 -0.3991 6.9944 1.3778 0.0488 0.5606 7.1519 0.4000 2.8949 0.0000 0.0000 0.0000 0.0000 0.0000 0.0000 0.0000 0.0000 0.0000 2.9615 2.8485 -21.6835 11.2084 15.0213 -29.4250 0.0000 -44.9223 0.0000 0.0321 -12.9789 -0.2196 0.9269 4.0714 3.3778 6.5715 57.6922 32.1822 -11.3498 28.0713 -3.9876 -48.4888 -19.2155 -22.6529 0.0000 0.0000 0.0000 0.0000 0.0000 0.0000 0.0000 0.0000 0.0000 12.9068 -0.7028 -0.7303 7.2076 -1.3861 0.1103 -0.4772 -0.7426 0.2797 
0.4344 -0.3991 6.9944 1.3778 0.0488 0.5606 7.1519 0.4000 2.8949 0.0000 0.0000 0.0000 0.0000 0.0000 0.0000 0.0000 0.0000 0.0000 2.9615 2.8485 -21.6835 11.2084 15.0213 -29.4250 0.0000 -44.9223 0.0000 0.0321 -12.9789 -0.2196 0.9269 4.0714 3.3778 6.5715 57.6922 32.1822 -11.3498 28.0713 -3.9876 -48.4888 -19.2155 -22.6529 0.0000 0.0000 0.0000 0.0000 0.0000 0.0000 0.0000 0.0000 0.0000 12.9068 -0.7028 -0.7303 7.2076 -1.3861 0.1103 -0.4772 -0.7426 0.2797 
0.4344 -0.3991 6.9944 1.3778 0.0488 0.5606 7.1519 0.4000 2.8949 0.0000 0.0000 0.0000 0.0000 0.0000 0.0000 0.0000 0.0000 0.0000 2.9615 2.8485 -21.6835 11.2084 15.0213 -29.4250 0.0000 -44.9223 0.0000 0.0321 -12.9789 -0.2196 0.9269 4.0714 3.3778 6.5715 57.6922 32.1822 -11.3498 28.0713 -3.9876 -48.4888 -19.2155 -22.6529 0.0000 0.0000 0.0000 0.0000 0.0000 0.0000 0.0000 0.0000 0.0000 12.9068 -0.7028 -0.7303 7.2076 -1.3861 0.1103 -0.4772 -0.7426 0.2797 
0.4344 -0.3991 6.9944 1.3778 0.0488 0.5606 7.1519 0.4000 2.8949 0.0000 0.0000 0.0000 0.0000 0.0000 0.0000 0.0000 0.0000 0.0000 2.9615 2.8485 -21.6835 11.2084 15.0213 -29.4250 0.0000 -44.9223 0.0000 0.0321 -12.9789 -0.2196 0.9269 4.0714 3.3778 6.5715 57.6922 32.1822 -11.3498 28.0713 -3.9876 -48.4888 -19.2155 -22.6529 0.0000 0.0000 0.0000 0.0000 0.0000 0.0000 0.0000 0.0000 0.0000 12.9068 -0.7028 -0.7303 7.2076 -1.3861 0.1103 -0.4772 -0.7426 0.2797 
0.4344 -0.3991 6.9944 1.3778 0.0488 0.5606 7.1519 0.4000 2.8949 0.0000 0.0000 0.0000 0.0000 0.0000 0.0000 0.0000 0.0000 0.0000 2.9615 2.8485 -21.6835 11.2084 15.0213 -29.4250 0.0000 -44.9223 0.0000 0.0321 -12.9789 -0.2196 0.9269 4.0714 3.3778 6.5715 57.6922 32.1822 -11.3498 28.0713 -3.9876 -48.4888 -19.2155 -22.6529 0.0000 0.0000 0.0000 0.0000 0.0000 0.0000 0.0000 0.0000 0.0000 12.9068 -0.7028 -0.7303 7.2076 -1.3861 0.1103 -0.4772 -0.7426 0.2797 
0.4344 -0.3991 6.9944 1.3778 0.0488 0.5606 7.1519 0.4000 2.8949 0.0000 0.0000 0.0000 0.0000 0.0000 0.0000 0.0000 0.0000 0.0000 2.9615 2.8485 -21.6835 11.2084 15.0213 -29.4250 0.0000 -44.9223 0.0000 0.0321 -12.9789 -0.2196 0.9269 4.0714 3.3778 6.5715 57.6922 32.1822 -11.3498 28.0713 -3.9876 -48.4888 -19.2155 -22.6529 0.0000 0.0000 0.0000 0.0000 0.0000 0.0000 0.0000 0.0000 0.0000 12.9068 -0.7028 -0.7303 7.2076 -1.3861 0.1103 -0.4772 -0.7426 0.2797 
0.4344 -0.3991 6.9944 1.3778 0.0488 0.5606 7.1519 0.4000 2.8949 0.0000 0.0000 0.0000 0.0000 0.0000 0.0000 0.0000 0.0000 0.0000 2.9615 2.8485 -21.6835 11.2084 15.0213 -29.4250 0.0000 -44.9223 0.0000 0.0321 -12.9789 -0.2196 0.9269 4.0714 3.3778 6.5715 57.6922 32.1822 -11.3498 28.0713 -3.9876 -48.4888 -19.2155 -22.6529 0.0000 0.0000 0.0000 0.0000 0.0000 0.0000 0.0000 0.0000 0.0000 12.9068 -0.7028 -0.7303 7.2076 -1.3861 0.1103 -0.4772 -0.7426 0.2797 
