HIERARCHY
ROOT hip
{
	OFFSET 0.00 0.00 0.00
	CHANNELS 6 Xposition Yposition Zposition Xrotation Yrotation Zrotation
	JOINT abdomen
	{
		OFFSET 0.0000 3.3100 -0.0000
		CHANNELS 3 Xrotation Yrotation Zrotation
		JOINT chest
		{
			OFFSET 0.0000 8.0660 -0.6050
			CHANNELS 3 Xrotation Yrotation Zrotation
			JOINT neck
			{
				OFFSET 0.0000 9.8861 -0.3705
				CHANNELS 3 Xrotation Yrotation Zrotation
				JOINT head
				{
					OFFSET 0.0000 2.9776 -0.0000
					CHANNELS 3 Xrotation Yrotation Zrotation
					End Site
					{
						OFFSET 0.0000 3.1102 -0.0000
					}
				}
			}
			JOINT lCollar
			{
				OFFSET 2.8220 6.5116 -0.8157
				CHANNELS 3 Xrotation Yrotation Zrotation
				JOINT lShldr
				{
					OFFSET 3.1102 0.0000 0.0000
					CHANNELS 3 Xrotation Yrotation Zrotation
					JOINT lForeArm
					{
						OFFSET 10.9354 0.0000 0.0000
						CHANNELS 3 Xrotation Yrotation Zrotation
						JOINT lHand
						{
							OFFSET 9.5165 0.0000 0.0000
							CHANNELS 3 Xrotation Yrotation Zrotation
							End Site
							{
								OFFSET 3.9370 0.0000 0.0000
							}
						}
					}
				}
			}
			JOINT rCollar
			{
				OFFSET -2.8346 6.5116 -0.8157
				CHANNELS 3 Xrotation Yrotation Zrotation
				JOINT rShldr
				{
					OFFSET -3.1267 0.0000 0.0000
					CHANNELS 3 Xrotation Yrotation Zrotation
					JOINT rForeArm
					{
						OFFSET -10.9354 0.0000 0.0000
						CHANNELS 3 Xrotation Yrotation Zrotation
						JOINT rHand
						{
							OFFSET -9.5236 0.0000 0.0000
							CHANNELS 3 Xrotation Yrotation Zrotation
							End Site
							{
								OFFSET -3.9370 0.0000 0.0000
							}
						}
					}
				}
			}
		}
	}
	JOINT rThigh
	{
		OFFSET -5.0711 -1.6176 1.3236
		CHANNELS 3 Xrotation Yrotation Zrotation
		JOINT rShin
		{
			OFFSET 1.9148 -19.3276 -0.0307
			CHANNELS 3 Xrotation Yrotation Zrotation
			JOINT rFoot
			{
				OFFSET 0.0000 -18.4446 -1.1366
				CHANNELS 3 Xrotation Yrotation Zrotation
				End Site
				{
					OFFSET 0.0000 -2.3873 4.4077
				}
			}
		}
	}
	JOINT lThigh
	{
		OFFSET 4.9907 -1.6141 1.3290
		CHANNELS 3 Xrotation Yrotation Zrotation
		JOINT lShin
		{
			OFFSET -1.7940 -19.3328 -0.0349
			CHANNELS 3 Xrotation Yrotation Zrotation
			JOINT lFoot
			{
				OFFSET 0.0543 -18.4448 -1.1373
				CHANNELS 3 Xrotation Yrotation Zrotation
				End Site
				{
					OFFSET 0.0000 -2.3866 4.4077
				}
			}
		}
	}
}
MOTION
Frames: 24
Frame Time: 0.041667
0.0000 0.0000 0.0969 0.0000 0.0000 0.0000 0.0000 0.0000 0.0000 1.0000 0.0000 0.0000 1.0000 0.0000 0.0000 1.0000 0.0000 0.0000 0.0000 0.0000 0.0000 0.0000 0.0000 0.0000 0.0000 0.0000 0.0000 0.0000 0.0000 0.0000 0.0000 0.0000 0.0000 0.0000 0.0000 0.0000 0.0000 0.0000 0.0000 0.0000 0.0000 0.0000 1.0000 0.0000 0.0000 1.0000 0.0000 0.0000 1.0000 0.0000 0.0000 1.0000 0.0000 0.0000 1.0000 0.0000 0.0000 1.0000 0.0000 0.0000 
-0.0258 0.0023 -0.1216 2.1044 -0.0417 -0.4464 10.9289 -0.3942 -2.2926 0.0000 0.0000 0.0000 0.0000 0.0000 0.0000 0.0000 0.0000 0.0000 2.8893 6.8273 5.1203 20.1420 -11.0441 -73.8824 0.0000 -38.1498 0.0000 -2.5355 -16.0906 -15.5875 -12.4766 37.4181 -31.2933 -82.9125 -3.4388 -2.3784 0.0001 43.5847 0.0000 -25.3410 11.6954 4.7640 0.0000 0.0000 0.0000 0.0000 0.0000 0.0000 0.0000 0.0000 0.0000 0.0000 0.0000 0.0000 0.0000 0.0000 0.0000 0.0000 0.0000 0.0000 
-0.0258 0.0023 -0.1216 2.1044 -0.0417 -0.4464 10.9289 -0.3942 -2.2926 0.0000 0.0000 0.0000 0.0000 0.0000 0.0000 0.0000 0.0000 0.0000 2.8893 6.8273 5.1203 20.1420 -11.0441 -73.8824 0.0000 -38.1498 0.0000 -2.5355 -16.0906 -15.5875 -12.4766 37.4181 -31.2933 -82.9125 -3.4388 -2.3784 0.0001 43.5847 0.0000 -25.3640 12.0578 4.9406 0.0000 0.0000 0.0000 0.0000 0.0000 0.0000 0.0000 0.0000 0.0000 0.0000 0.0000 0.0000 0.0000 0.0000 0.0000 0.0000 0.0000 0.0000 
-0.0258 0.0023 -0.1216 2.1044 -0.0417 -0.4464 10.9289 -0.3942 -2.2926 0.0000 0.0000 0.0000 0.0000 0.0000 0.0000 0.0000 0.0000 0.0000 2.8893 6.8273 5.1203 20.1420 -11.0441 -73.8824 0.0000 -38.1498 0.0000 -2.5355 -16.0906 -15.5875 -12.4766 37.4181 -31.2933 -82.9125 -3.4388 -2.3784 0.0001 43.5847 0.0000 -25.3918 12.4279 5.1520 0.0000 0.0000 0.0000 0.0000 0.0000 0.0000 0.0000 0.0000 0.0000 0.0000 0.0000 0.0000 0.0000 0.0000 0.0000 0.0000 0.0000 0.0000 
-0.0258 0.0023 -0.1216 2.1044 -0.0417 -0.4464 10.9289 -0.3942 -2.2926 0.0000 0.0000 0.0000 0.0000 0.0000 0.0000 0.0000 0.0000 0.0000 2.8893 6.8273 5.1203 20.1420 -11.0441 -73.8824 0.0000 -38.1498 0.0000 -2.5355 -16.0906 -15.5875 -12.4766 37.4181 -31.2933 -82.9125 -3.4388 -2.3784 0.0001 43.5847 0.0000 -25.4237 12.7956 5.3918 0.0000 0.0000 0.0000 0.0000 0.0000 0.0000 0.0000 0.0000 0.0000 0.0000 0.0000 0.0000 0.0000 0.0000 0.0000 0.0000 0.0000 0.0000 
-0.0258 0.0023 -0.1216 2.1044 -0.0417 -0.4464 10.9289 -0.3942 -2.2926 0.0000 0.0000 0.0000 0.0000 0.0000 0.0000 0.0000 0.0000 0.0000 2.8893 6.8273 5.1203 20.1420 -11.0441 -73.8824 0.0000 -38.1498 0.0000 -2.5355 -16.0906 -15.5875 -12.4766 37.4181 -31.2933 -82.9125 -3.4388 -2.3784 0.0001 43.5847 0.0000 -25.4585 13.1468 5.6480 0.0000 0.0000 0.0000 0.0000 0.0000 0.0000 0.0000 0.0000 0.0000 0.0000 0.0000 0.0000 0.0000 0.0000 0.0000 0.0000 0.0000 0.0000 
-0.0258 0.0023 -0.1216 2.1044 -0.0417 -0.4464 10.9289 -0.3942 -2.2926 0.0000 0.0000 0.0000 0.0000 0.0000 0.0000 0.0000 0.0000 0.0000 2.8893 6.8273 5.1203 20.1420 -11.0441 -73.8824 0.0000 -38.1498 0.0000 -2.5355 -16.0906 -15.5875 -12.4766 37.4181 -31.2933 -82.9125 -3.4388 -2.3784 0.0001 43.5847 0.0000 -25.4939 13.4645 5.9029 0.0000 0.0000 0.0000 0.0000 0.0000 0.0000 0.0000 0.0000 0.0000 0.0000 0.0000 0.0000 0.0000 0.0000 0.0000 0.0000 0.0000 0.0000 
-0.0258 0.0023 -0.1216 2.1044 -0.0417 -0.4464 10.9289 -0.3942 -2.2926 0.0000 0.0000 0.0000 0.0000 0.0000 0.0000 0.0000 0.0000 0.0000 2.8893 6.8273 5.1203 20.1420 -11.0441 -73.8824 0.0000 -38.1498 0.0000 -2.5355 -16.0906 -15.5875 -12.4766 37.4181 -31.2933 -82.9125 -3.4388 -2.3784 0.0001 43.5847 0.0000 -25.5268 13.7329 6.1362 0.0000 0.0000 0.0000 0.0000 0.0000 0.0000 0.0000 0.0000 0.0000 0.0000 0.0000 0.0000 0.0000 0.0000 0.0000 0.0000 0.0000 0.0000 
-0.0258 0.0023 -0.1216 2.1044 -0.0417 -0.4464 10.9289 -0.3942 -2.2926 0.0000 0.0000 0.0000 0.0000 0.0000 0.0000 0.0000 0.0000 0.0000 2.8893 6.8273 5.1203 20.1420 -11.0441 -73.8824 0.0000 -38.1498 0.0000 -2.5355 -16.0906 -15.5875 -12.4766 37.4181 -31.2933 -82.9125 -3.4388 -2.3784 0.0001 43.5847 0.0000 -25.5545 13.9408 6.3294 0.0000 0.0000 0.0000 0.0000 0.0000 0.0000 0.0000 0.0000 0.0000 0.0000 0.0000 0.0000 0.0000 0.0000 0.0000 0.0000 0.0000 0.0000 
-0.0258 0.0023 -0.1216 2.1044 -0.0417 -0.4464 10.9289 -0.3942 -2.2926 0.0000 0.0000 0.0000 0.0000 0.0000 0.0000 0.0000 0.0000 0.0000 2.8893 6.8273 5.1203 20.1420 -11.0441 -73.8824 0.0000 -38.1498 0.0000 -2.5355 -16.0906 -15.5875 -12.4766 37.4181 -31.2933 -82.9125 -3.4388 -2.3784 0.0001 43.5847 0.0000 -25.5749 14.0845 6.4703 0.0000 0.0000 0.0000 0.0000 0.0000 0.0000 0.0000 0.0000 0.0000 0.0000 0.0000 0.0000 0.0000 0.0000 0.0000 0.0000 0.0000 0.0000 
-0.0258 0.0023 -0.1216 2.1044 -0.0417 -0.4464 10.9289 -0.3942 -2.2926 0.0000 0.0000 0.0000 0.0000 0.0000 0.0000 0.0000 0.0000 0.0000 2.8893 6.8273 5.1203 20.1420 -11.0441 -73.8824 0.0000 -38.1498 0.0000 -2.5355 -16.0906 -15.5875 -12.4766 37.4181 -31.2933 -82.9125 -3.4388 -2.3784 0.0001 43.5847 0.0000 -25.5870 14.1660 6.5540 0.0000 0.0000 0.0000 0.0000 0.0000 0.0000 0.0000 0.0000 0.0000 0.0000 0.0000 0.0000 0.0000 0.0000 0.0000 0.0000 0.0000 0.0000 
-0.0258 0.0023 -0.1216 2.1044 -0.0417 -0.4464 10.9289 -0.3942 -2.2926 0.0000 0.0000 0.0000 0.0000 0.0000 0.0000 0.0000 0.0000 0.0000 2.8893 6.8273 5.1203 20.1420 -11.0441 -73.8824 0.0000 -38.1498 0.0000 -2.5355 -16.0906 -15.5875 -12.4766 37.4181 -31.2933 -82.9125 -3.4388 -2.3784 0.0001 43.5847 0.0000 -25.5910 14.1915 6.5811 0.0000 0.0000 0.0000 0.0000 0.0000 0.0000 0.0000 0.0000 0.0000 0.0000 0.0000 0.0000 0.0000 0.0000 0.0000 0.0000 0.0000 0.0000 
-0.0258 0.0023 -0.1216 2.1044 -0.0417 -0.4464 10.9289 -0.3942 -2.2926 0.0000 0.0000 0.0000 0.0000 0.0000 0.0000 0.0000 0.0000 0.0000 2.8893 6.8273 5.1203 20.1420 -11.0441 -73.8824 0.0000 -38.1498 0.0000 -2.5355 -16.0906 -15.5875 -12.4766 37.4181 -31.2933 -82.9125 -3.4388 -2.3784 0.0001 43.5847 0.0000 -25.5857 14.1459 6.5476 0.0000 0.0000 0.0000 0.0000 0.0000 0.0000 0.0000 0.0000 0.0000 0.0000 0.0000 0.0000 0.0000 0.0000 0.0000 0.0000 0.0000 0.0000 
-0.0258 0.0023 -0.1216 2.1044 -0.0417 -0.4464 10.9289 -0.3942 -2.2926 0.0000 0.0000 0.0000 0.0000 0.0000 0.0000 0.0000 0.0000 0.0000 2.8893 6.8273 5.1203 20.1420 -11.0441 -73.8824 0.0000 -38.1498 0.0000 -2.5355 -16.0906 -15.5875 -12.4766 37.4181 -31.2933 -82.9125 -3.4388 -2.3784 0.0001 43.5847 0.0000 -25.5697 14.0083 6.4465 0.0000 0.0000 0.0000 0.0000 0.0000 0.0000 0.0000 0.0000 0.0000 0.0000 0.0000 0.0000 0.0000 0.0000 0.0000 0.0000 0.0000 0.0000 
-0.0258 0.0023 -0.1216 2.1044 -0.0417 -0.4464 10.9289 -0.3942 -2.2926 0.0000 0.0000 0.0000 0.0000 0.0000 0.0000 0.0000 0.0000 0.0000 2.8893 6.8273 5.1203 20.1420 -11.0441 -73.8824 0.0000 -38.1498 0.0000 -2.5355 -16.0906 -15.5875 -12.4766 37.4181 -31.2933 -82.9125 -3.4388 -2.3784 0.0001 43.5847 0.0000 -25.5442 13.7827 6.2811 0.0000 0.0000 0.0000 0.0000 0.0000 0.0000 0.0000 0.0000 0.0000 0.0000 0.0000 0.0000 0.0000 0.0000 0.0000 0.0000 0.0000 0.0000 
-0.0258 0.0023 -0.1216 2.1044 -0.0417 -0.4464 10.9289 -0.3942 -2.2926 0.0000 0.0000 0.0000 0.0000 0.0000 0.0000 0.0000 0.0000 0.0000 2.8893 6.8273 5.1203 20.1420 -11.0441 -73.8824 0.0000 -38.1498 0.0000 -2.5355 -16.0906 -15.5875 -12.4766 37.4181 -31.2933 -82.9125 -3.4388 -2.3784 0.0001 43.5847 0.0000 -25.5113 13.4820 6.0610 0.0000 0.0000 0.0000 0.0000 0.0000 0.0000 0.0000 0.0000 0.0000 0.0000 0.0000 0.0000 0.0000 0.0000 0.0000 0.0000 0.0000 0.0000 
-0.0258 0.0023 -0.1216 2.1044 -0.0417 -0.4464 10.9289 -0.3942 -2.2926 0.0000 0.0000 0.0000 0.0000 0.0000 0.0000 0.0000 0.0000 0.0000 2.8893 6.8273 5.1203 20.1420 -11.0441 -73.8824 0.0000 -38.1498 0.0000 -2.5355 -16.0906 -15.5875 -12.4766 37.4181 -31.2933 -82.9125 -3.4388 -2.3784 0.0001 43.5847 0.0000 -25.4743 13.1298 5.8039 0.0000 0.0000 0.0000 0.0000 0.0000 0.0000 0.0000 0.0000 0.0000 0.0000 0.0000 0.0000 0.0000 0.0000 0.0000 0.0000 0.0000 0.0000 
-0.0258 0.0023 -0.1216 2.1044 -0.0417 -0.4464 10.9289 -0.3942 -2.2926 0.0000 0.0000 0.0000 0.0000 0.0000 0.0000 0.0000 0.0000 0.0000 2.8893 6.8273 5.1203 20.1420 -11.0441 -73.8824 0.0000 -38.1498 0.0000 -2.5355 -16.0906 -15.5875 -12.4766 37.4181 -31.2933 -82.9125 -3.4388 -2.3784 0.0001 43.5847 0.0000 -25.4372 12.7591 5.5341 0.0000 0.0000 0.0000 0.0000 0.0000 0.0000 0.0000 0.0000 0.0000 0.0000 0.0000 0.0000 0.0000 0.0000 0.0000 0.0000 0.0000 0.0000 
-0.0258 0.0023 -0.1216 2.1044 -0.0417 -0.4464 10.9289 -0.3942 -2.2926 0.0000 0.0000 0.0000 0.0000 0.0000 0.0000 0.0000 0.0000 0.0000 2.8893 6.8273 5.1203 20.1420 -11.0441 -73.8824 0.0000 -38.1498 0.0000 -2.5355 -16.0906 -15.5875 -12.4766 37.4181 -31.2933 -82.9125 -3.4388 -2.3784 0.0001 43.5847 0.0000 -25.4036 12.4065 5.2782 0.0000 0.0000 0.0000 0.0000 0.0000 0.0000 0.0000 0.0000 0.0000 0.0000 0.0000 0.0000 0.0000 0.0000 0.0000 0.0000 0.0000 0.0000 
-0.0258 0.0023 -0.1216 2.1044 -0.0417 -0.4464 10.9289 -0.3942 -2.2926 0.0000 0.0000 0.0000 0.0000 0.0000 0.0000 0.0000 0.0000 0.0000 2.8893 6.8273 5.1203 20.1420 -11.0441 -73.8824 0.0000 -38.1498 0.0000 -2.5355 -16.0906 -15.5875 -12.4766 37.4181 -31.2933 -82.9125 -3.4388 -2.3784 0.0001 43.5847 0.0000 -25.3762 12.1053 5.0600 0.0000 0.0000 0.0000 0.0000 0.0000 0.0000 0.0000 0.0000 0.0000 0.0000 0.0000 0.0000 0.0000 0.0000 0.0000 0.0000 0.0000 0.0000 
-0.0258 0.0023 -0.1216 2.1044 -0.0417 -0.4464 10.9289 -0.3942 -2.2926 0.0000 0.0000 0.0000 0.0000 0.0000 0.0000 0.0000 0.0000 0.0000 2.8893 6.8273 5.1203 20.1420 -11.0441 -73.8824 0.0000 -38.1498 0.0000 -2.5355 -16.0906 -15.5875 -12.4766 37.4181 -31.2933 -82.9125 -3.4388 -2.3784 0.0001 43.5847 0.0000 -25.3565 11.8791 4.8966 0.0000 0.0000 0.0000 0.0000 0.0000 0.0000 0.0000 0.0000 0.0000 0.0000 0.0000 0.0000 0.0000 0.0000 0.0000 0.0000 0.0000 0.0000 
-0.0258 0.0023 -0.1216 2.1044 -0.0417 -0.4464 10.9289 -0.3942 -2.2926 0.0000 0.0000 0.0000 0.0000 0.0000 0.0000 0.0000 0.0000 0.0000 2.8893 6.8273 5.1203 20.1420 -11.0441 -73.8824 0.0000 -38.1498 0.0000 -2.5355 -16.0906 -15.5875 -12.4766 37.4181 -31.2933 -82.9125 -3.4388 -2.3784 0.0001 43.5847 0.0000 -25.3448 11.7412 4.7970 0.0000 0.0000 0.0000 0.0000 0.0000 0.0000 0.0000 0.0000 0.0000 0.0000 0.0000 0.0000 0.0000 0.0000 0.0000 0.0000 0.0000 0.0000 
-0.0258 0.0023 -0.1216 2.1044 -0.0417 -0.4464 10.9289 -0.3942 -2.2926 0.0000 0.0000 0.0000 0.0000 0.0000 0.0000 0.0000 0.0000 0.0000 2.8893 6.8273 5.1203 20.1420 -11.0441 -73.8824 0.0000 -38.1498 0.0000 -2.5355 -16.0906 -15.5875 -12.4766 37.4181 -31.2933 -82.9125 -3.4388 -2.3784 0.0001 43.5847 0.0000 -25.3410 11.6954 4.7640 0.0000 0.0000 0.0000 0.0000 0.0000 0.0000 0.0000 0.0000 0.0000 0.0000 0.0000 0.0000 0.0000 0.0000 0.0000 0.0000 0.0000 0.0000 
-0.0258 0.0023 -0.1216 2.1044 -0.0417 -0.4464 10.9289 -0.3942 -2.2926 0.0000 0.0000 0.0000 0.0000 0.0000 0.0000 0.0000 0.0000 0.0000 2.8893 6.8273 5.1203 20.1420 -11.0441 -73.8824 0.0000 -38.1498 0.0000 -2.5355 -16.0906 -15.5875 -12.4766 37.4181 -31.2933 -82.9125 -3.4388 -2.3784 0.0001 43.5847 0.0000 -25.3410 11.6954 4.7640 0.0000 0.0000 0.0000 0.0000 0.0000 0.0000 0.0000 0.0000 0.0000 0.0000 0.0000 0.0000 0.0000 0.0000 0.0000 0.0000 0.0000 0.0000 
